{"type": "FeatureCollection", "features": [{"type": "Feature", "properties": {"FID": 0, "instln_id": "37445", "instname": "Camp Mackall", "area_size": 11881.2183614, "area_name": null, "area_type": null, "area_syskey": 0}, "geometry": {"type": "Polygon", "coordinates": [[[-79.46804767243829, 35.06751756127649], [-79.46793178976662, 35.06740212708376], [-79.46739100396552, 35.06751094403418], [-79.46729578254539, 35.067521972771075], [-79.46712510264139, 35.06730801500967], [-79.46680709903076, 35.06728816323016], [-79.46646663753802, 35.0671234667993], [-79.46613965077456, 35.06706611707129], [-79.46570576449227, 35.06705361776622], [-79.46542638843889, 35.06706170555205], [-79.46509760504483, 35.067199197788696], [-79.46479397447877, 35.06729183948599], [-79.46417503524792, 35.067284486974174], [-79.46401244018148, 35.06718302224346], [-79.46358574042146, 35.06674334028625], [-79.46353273981968, 35.06649702912467], [-79.46359023199788, 35.06637644667308], [-79.463514773514, 35.06626689294981], [-79.46353633308082, 35.06615072172694], [-79.4635893336826, 35.066000728257904], [-79.4635372313961, 35.065754414855434], [-79.46334768687115, 35.06549339536404], [-79.46319676990338, 35.06537428196669], [-79.46279432465604, 35.065299284553255], [-79.46217718205575, 35.065213258023604], [-79.46203165497971, 35.06511693761356], [-79.46168221033415, 35.065153701142236], [-79.46156902260833, 35.065215463833184], [-79.461074949202, 35.06521399329347], [-79.46036258518158, 35.065008117471585], [-79.46067250395465, 35.06441033937482], [-79.45952805028251, 35.06393902539055], [-79.45870519348215, 35.06526325635958], [-79.45733526267368, 35.06746021182536], [-79.45624291128804, 35.06742344933548], [-79.45465109660437, 35.06627424555328], [-79.45079283245853, 35.06364417703704], [-79.45103537758528, 35.062444920016155], [-79.45106053041323, 35.059538983223376], [-79.45095183426383, 35.05951839423335], [-79.45090152860793, 35.05935735873953], [-79.45084403642973, 35.05919779357619], [-79.45078025604455, 35.05903969875199], [-79.45070839082182, 35.05888380960235], [-79.45063023739208, 35.05873012613986], [-79.45054489744007, 35.05857864837704], [-79.45045326928108, 35.05843084698808], [-79.45035445459982, 35.058285251328364], [-79.44778886614802, 35.05465336447537], [-79.45184835291752, 35.05063817299496], [-79.45187350574547, 35.050651410214265], [-79.4538273414887, 35.051671405050485], [-79.454077971453, 35.05141401750473], [-79.45213401717791, 35.050399167277156], [-79.45210347445824, 35.050382988403314], [-79.45271792211265, 35.049732889183645], [-79.45369888240307, 35.04872904934246], [-79.45375727289654, 35.048757730652014], [-79.45575512608869, 35.04974980359544], [-79.45613421513865, 35.0491416179793], [-79.45490981140622, 35.04862609071247], [-79.45425224461816, 35.04824220096218], [-79.45420014233166, 35.04821204862568], [-79.4558629239228, 35.04651393932025], [-79.4563875400488, 35.04599692458302], [-79.45825064594833, 35.044368637728134], [-79.45914357134087, 35.04320807742281], [-79.45919747025792, 35.043137472461574], [-79.45965561105288, 35.04238140717643], [-79.45971130660051, 35.04204014584536], [-79.4596726790433, 35.04195262385193], [-79.45948493114888, 35.04202322983713], [-79.45903218024561, 35.041914378917795], [-79.45906182465001, 35.041832740633076], [-79.45864500635811, 35.041668728337086], [-79.45847073319297, 35.04137379956838], [-79.45841144438421, 35.04120610892089], [-79.45851025906548, 35.040951630351], [-79.45883095762194, 35.04080306157091], [-79.4592837085252, 35.04053975584154], [-79.45884353403594, 35.040167596017], [-79.45924687759856, 35.03975056906127], [-79.45972747627563, 35.039543158036736], [-79.45947954125718, 35.03936957961152], [-79.45917231742996, 35.03925631213523], [-79.45893606051021, 35.03908567512126], [-79.45838269829511, 35.03921071089915], [-79.45807906772903, 35.038709831131015], [-79.4580871525666, 35.03851639216081], [-79.45813386496138, 35.03842077577067], [-79.45811589865569, 35.03814348760653], [-79.45793354065299, 35.03787355366223], [-79.45789850635691, 35.037567578412784], [-79.45773591129046, 35.03751829863807], [-79.45724453282998, 35.03759847019669], [-79.45738646664489, 35.03710567129854], [-79.45716188782383, 35.03692767454801], [-79.45677381562103, 35.03684235365411], [-79.45706397145784, 35.03648488756109], [-79.45680615497126, 35.03631498028961], [-79.45633633607761, 35.036606985209026], [-79.45631118324964, 35.03610903160811], [-79.45620697867668, 35.03586557017587], [-79.45616385954303, 35.035591215487244], [-79.45607582464517, 35.03536319882527], [-79.45549102139513, 35.03553899237242], [-79.45535807073306, 35.035015288305445], [-79.45530327350072, 35.03491525456257], [-79.45457204485935, 35.03449158088229], [-79.45468163932402, 35.03387519059872], [-79.4547445213939, 35.03376265105936], [-79.45340064172869, 35.03409144261187], [-79.45403664894994, 35.03301900354122], [-79.45420553222337, 35.03278509520777], [-79.4541291754242, 35.03253206153983], [-79.45408695460586, 35.03215692297418], [-79.45378601898562, 35.03266961191582], [-79.45329284389459, 35.03228785388486], [-79.45210527108883, 35.03189800280294], [-79.45196603221976, 35.03196420406112], [-79.45174414834455, 35.03213853378452], [-79.45126444798277, 35.031998040239074], [-79.45134799130419, 35.03168762955982], [-79.45122132884912, 35.03142944347589], [-79.4510003432892, 35.031229367089274], [-79.4510452590534, 35.03097412187037], [-79.45114587036524, 35.03092483811959], [-79.45122582042553, 35.03071446237157], [-79.45095632584025, 35.02995019067427], [-79.45091141007605, 35.02963020954489], [-79.45079193414324, 35.02940291184377], [-79.450674254841, 35.029018196171464], [-79.45070839082182, 35.02881884947991], [-79.45060418624884, 35.02869821139353], [-79.45015233366087, 35.028424568244986], [-79.4500589088713, 35.02845767028746], [-79.44989092391315, 35.02856359673333], [-79.44973192210783, 35.02851725393017], [-79.44958100514009, 35.02842530384609], [-79.4493124088701, 35.02859228512214], [-79.448929726559, 35.02804058357252], [-79.44861801115536, 35.02837454735536], [-79.44819670128706, 35.028061180497296], [-79.44765411885538, 35.02795231097904], [-79.44789127409044, 35.027556554346496], [-79.44765950874708, 35.027536692903674], [-79.44746547264569, 35.027597748434765], [-79.44725616518446, 35.02786845192693], [-79.44702889141755, 35.02769484870354], [-79.44700373858959, 35.027418995365636], [-79.44674322715716, 35.027227000893035], [-79.44643241006881, 35.027062959281416], [-79.44667405688027, 35.026795931200596], [-79.44672705748204, 35.02676650656534], [-79.4467926344978, 35.02657818864884], [-79.44667046361914, 35.02644945544847], [-79.44629586614559, 35.02647225963016], [-79.44599133726425, 35.02629203285936], [-79.44566614713135, 35.026127989371496], [-79.44536880477226, 35.025992634855626], [-79.44470674640777, 35.02619640216654], [-79.4445396597649, 35.02571383327159], [-79.44403121331402, 35.02582049889758], [-79.4441641639761, 35.025215813300115], [-79.44405187456556, 35.02492671021142], [-79.44275291066455, 35.02311482711422], [-79.44290562426286, 35.02287426957873], [-79.44523765074076, 35.019182689332666], [-79.44533916036788, 35.019018631579634], [-79.44543797504915, 35.01885236643577], [-79.44553319646928, 35.01868536526513], [-79.44562482462827, 35.018516156682715], [-79.44571285952614, 35.018346212058354], [-79.44579730116284, 35.018174795694186], [-79.44587904785371, 35.01800190758092], [-79.44595630296816, 35.017828283405684], [-79.44603086313674, 35.01765392316383], [-79.44610093172892, 35.01747809115099], [-79.44616830537524, 35.01730078735773], [-79.44623118744514, 35.01712348318005], [-79.44629047625389, 35.01694544291355], [-79.44634617180152, 35.016766666553444], [-79.446398274088, 35.0165871540949], [-79.44644678311336, 35.016406905533046], [-79.44633359538754, 35.016231070838884], [-79.44638839261988, 35.015985343059704], [-79.44643510501466, 35.015738143111705], [-79.44647552920244, 35.01549020669897], [-79.44650786855269, 35.01524153381488], [-79.44653391969592, 35.0149913887307], [-79.4465518860016, 35.01474197860561], [-79.44656356410032, 35.01449183199347], [-79.44656715736144, 35.01424168461619], [-79.44656985230729, 35.01188952612135], [-79.44673693895018, 35.01189541212006], [-79.44687887276508, 35.011900562368574], [-79.44693726325855, 35.011864510622125], [-79.44703428130926, 35.01191307011364], [-79.44710434990142, 35.01191822036105], [-79.44711333305426, 35.01176812730354], [-79.44719328311456, 35.01180197184055], [-79.44731006410152, 35.01178284232137], [-79.44732353883077, 35.01174311176719], [-79.4473055725251, 35.01166659360848], [-79.44740169226051, 35.01165997184136], [-79.44746187938455, 35.011567267045656], [-79.44744750634, 35.01148780570858], [-79.44757506711036, 35.011487069955095], [-79.4476415424414, 35.01140172250628], [-79.44763435591912, 35.011344333654414], [-79.44772328913227, 35.011281794475146], [-79.44777089984233, 35.01121263344471], [-79.44786522294717, 35.0111706953446], [-79.447880494307, 35.01107063242235], [-79.44797751235771, 35.01107504696561], [-79.44794876626861, 35.01095438269721], [-79.44786881620831, 35.010919802050886], [-79.44791912186423, 35.01085211223279], [-79.44800805507738, 35.010856526787855], [-79.4481212428032, 35.01070275297944], [-79.44813022595604, 35.01059974643895], [-79.44811136133507, 35.010505568916955], [-79.448149090577, 35.01046657350499], [-79.44826676987924, 35.01045774435255], [-79.44823532884428, 35.01035841632176], [-79.44834492330897, 35.01023260064293], [-79.44855872234662, 35.010259088170365], [-79.44870424942266, 35.0100619030383], [-79.44871053762965, 35.01000157017904], [-79.44880755568035, 35.00994859494887], [-79.44890547204633, 35.00998611907379], [-79.44896925243152, 35.00995668838902], [-79.4490842367879, 35.0099471234142], [-79.44909860983245, 35.009811742112085], [-79.4492612048989, 35.00979187635869], [-79.44930073077138, 35.00970873444952], [-79.4494148168125, 35.00966238095903], [-79.44957381861781, 35.00978451867101], [-79.44959358155407, 35.00968371828329], [-79.44974719346767, 35.00965649479963], [-79.44986217782404, 35.009649137099764], [-79.4499169750564, 35.009549072316155], [-79.45018287638052, 35.009537299980614], [-79.45023947024342, 35.00945415781268], [-79.45031582704259, 35.0094158976716], [-79.45046674401036, 35.00941884076001], [-79.4504865069466, 35.00925476341952], [-79.45038859058062, 35.009194429964914], [-79.45042901476842, 35.00912526716956], [-79.45056915195276, 35.00909583617505], [-79.45061766097811, 35.00897149010644], [-79.45066078011175, 35.00886627405458], [-79.45090961344549, 35.0088883473634], [-79.45099315676691, 35.0088088834238], [-79.45111263269972, 35.008644804859834], [-79.45111353101501, 35.008644804859834], [-79.45120875243514, 35.00851751498485], [-79.4513363132055, 35.00845865254796], [-79.45156628191826, 35.00825851994562], [-79.45177738601006, 35.0082320317704], [-79.4520082530381, 35.00806942361783], [-79.45201723619094, 35.00792815292426], [-79.45236668083653, 35.00763751713634], [-79.45263707373708, 35.007430760415616], [-79.4528239233162, 35.00735865296662], [-79.45312935051285, 35.007295374948825], [-79.45330721693912, 35.0073454087344], [-79.4535776098397, 35.00736601087249], [-79.45367462789038, 35.00738440563428], [-79.45382374822756, 35.00726226433859], [-79.45381835833587, 35.007179119858286], [-79.4537941038232, 35.00712246383658], [-79.45385698589308, 35.00709450370752], [-79.45408964955172, 35.007128350178334], [-79.45423068505134, 35.00702460334303], [-79.45443190767502, 35.00696573983187], [-79.45449299311433, 35.0069282143214], [-79.45475350454676, 35.00675677402519], [-79.4550427620683, 35.00662359483468], [-79.45545598709904, 35.0064344947276], [-79.455651819831, 35.00630646561319], [-79.45574524462057, 35.006328539612724], [-79.4557946519612, 35.00625201638886], [-79.45599946784601, 35.00632265321344], [-79.45616924943474, 35.006367536997345], [-79.45625818264787, 35.00633074701235], [-79.45643245581302, 35.00624171518017], [-79.45646299853269, 35.006138703022025], [-79.45666332284107, 35.00594739438419], [-79.45689149492325, 35.00582672255179], [-79.45714481983343, 35.005820100311944], [-79.45740802621171, 35.005942979564196], [-79.45747809480388, 35.00604893517845], [-79.4575391802432, 35.006043784561484], [-79.4575787061157, 35.00602686110347], [-79.45770896183193, 35.00602097468246], [-79.45796767663379, 35.006009937641956], [-79.4581212885474, 35.00589294492089], [-79.4582066284994, 35.00579287554245], [-79.45850397085847, 35.005678825733945], [-79.45880310984813, 35.005619961254425], [-79.45892348409623, 35.005564775766445], [-79.45919118205093, 35.00523145462748], [-79.45944001538467, 35.00520938033192], [-79.46082970912938, 35.00491873488489], [-79.46102644017664, 35.004510357891895], [-79.46200111226005, 35.0040835833606], [-79.46244667664104, 35.0038930057388], [-79.46277725666563, 35.00366563648957], [-79.46289403765259, 35.00341324852472], [-79.46300093717142, 35.0033624765077], [-79.46327761827897, 35.00297910997074], [-79.4636117915647, 35.00263474080143], [-79.46374025065035, 35.00241472640664], [-79.46402321996489, 35.00207697740527], [-79.46428732465844, 35.00190699862228], [-79.4645406495686, 35.001727453550274], [-79.46518563994269, 35.00120721212099], [-79.46538326930524, 35.000876816624604], [-79.46578032466086, 35.00077526941114], [-79.46591956352992, 35.00143311651428], [-79.46738561407382, 35.00287609370452], [-79.46777548290719, 35.003485359451254], [-79.46818780962263, 35.004498584831246], [-79.46897203886579, 35.004848096848114], [-79.47621066342623, 35.00810106233349], [-79.48267943178809, 35.010984548781], [-79.49520733674215, 35.00699811476825], [-79.51122789152137, 35.00194305475728], [-79.51314669296852, 35.00133524921526], [-79.51498734098594, 35.00894353060934], [-79.51398661775929, 35.009752880606484], [-79.51460376035955, 35.00997066796561], [-79.51530354796598, 35.01022597875976], [-79.51593506361081, 35.01276874248425], [-79.5107634625194, 35.01345224390516], [-79.51061074892108, 35.015753593130356], [-79.51649381571761, 35.01502376049057], [-79.51796795109905, 35.021583191813285], [-79.51960557986223, 35.02062020372711], [-79.52228345772457, 35.02221585924864], [-79.51995232956195, 35.0252945256688], [-79.52182352029904, 35.02625304497501], [-79.52054521764954, 35.0264877076206], [-79.5201194162048, 35.03055337008658], [-79.5239803752965, 35.03082700610832], [-79.52308655158869, 35.0392849967707], [-79.52117134340268, 35.03970129060313], [-79.52088927240342, 35.03882383487236], [-79.52017511175245, 35.03897976231264], [-79.5204571827517, 35.039857216368915], [-79.51586499501863, 35.04085675229984], [-79.51093414242342, 35.042070300460054], [-79.5105649348416, 35.042164441624536], [-79.51019752389034, 35.042264466492924], [-79.50983190956964, 35.042371110519184], [-79.5094698885101, 35.04248290272831], [-79.5091105623964, 35.042601314046124], [-79.50875393122855, 35.04272487349913], [-79.50839999500657, 35.04285505200642], [-79.5080496520457, 35.04299037859636], [-79.50260945468433, 35.04514895449404], [-79.50242350342049, 35.04522544131599], [-79.50224114541778, 35.04530634076124], [-79.50206058404565, 35.04539312371346], [-79.50188271761937, 35.045484319258826], [-79.50170844445422, 35.045579927382555], [-79.50153776455022, 35.04568068351492], [-79.50137067790735, 35.045785116747204], [-79.50120718452563, 35.045893962509204], [-79.5010490810356, 35.0460079562261], [-79.5008945708067, 35.04612489155103], [-79.50074455215423, 35.04624623935274], [-79.50059992339348, 35.04637052873247], [-79.50045978620912, 35.046498495115195], [-79.50032503891649, 35.04663013848363], [-79.50019657983086, 35.046763987948], [-79.50007261232162, 35.04690151436701], [-79.4992811965562, 35.04780756498673], [-79.4991500425247, 35.04795244390218], [-79.49901080365564, 35.04809438086458], [-79.4988652765796, 35.04823264046645], [-79.49871346129656, 35.048366487304904], [-79.49855445949125, 35.04849592140161], [-79.49839006779423, 35.048620942777546], [-79.49822028620551, 35.048741551452984], [-79.4980442164098, 35.04885627661314], [-79.49786365503765, 35.04896585369898], [-79.49767770377383, 35.049069547315945], [-79.49748815924885, 35.0491673574865], [-79.49729412314746, 35.04925928423175], [-79.4970973921002, 35.04934459215878], [-79.4968970677918, 35.04942401670043], [-79.49669404853758, 35.04949755787382], [-79.49648923265276, 35.04956374487322], [-79.49375386261224, 35.05040505050322], [-79.49358857259995, 35.05045505790767], [-79.49342148595707, 35.05050212367211], [-79.49325350099892, 35.05054624780165], [-79.4930837194102, 35.05058816570264], [-79.49291303950619, 35.05062714197723], [-79.4927414612869, 35.05066317662965], [-79.49256988306762, 35.05069700506437], [-79.49239650821774, 35.050727891883845], [-79.4922222350526, 35.050756572491466], [-79.49204796188747, 35.05078231148973], [-79.49187279040704, 35.05080510888144], [-79.49169761892661, 35.05082496466904], [-79.49152244744619, 35.050841878854634], [-79.49134637765046, 35.050856586839295], [-79.49117030785474, 35.05086835322508], [-79.49099423805905, 35.05087717801332], [-79.48704793901535, 35.051044848808765], [-79.48687815742664, 35.05105367357795], [-79.4867083758379, 35.05106617533263], [-79.48653769593392, 35.05108235407116], [-79.4863670160299, 35.05110220979136], [-79.48619633612589, 35.05112574249049], [-79.4860256562219, 35.051153687561914], [-79.48585497631788, 35.0511845742087], [-79.48568519472916, 35.051219137823374], [-79.48551631145571, 35.051258113796855], [-79.48534832649756, 35.05130003133247], [-79.48518034153942, 35.051346361215224], [-79.48501505152711, 35.051395632649], [-79.48485065983009, 35.05144931641615], [-79.48468716644837, 35.05150594172133], [-79.48452636801248, 35.051566243951235], [-79.48436736620718, 35.05163022309768], [-79.48421016103244, 35.05169787915203], [-79.48405475248826, 35.05176847671424], [-79.48390293720522, 35.05184275116691], [-79.48375291855275, 35.051919967110436], [-79.48360559484613, 35.052000124536505], [-79.48346186440065, 35.05208395882455], [-79.48331993058574, 35.05216999918859], [-79.48318248834725, 35.05225898100818], [-79.48304774105462, 35.052350904273716], [-79.48291568870783, 35.0524450335904], [-79.48278812793747, 35.052541368950635], [-79.48266326211295, 35.05264064572966], [-79.48254288786487, 35.052742128534625], [-79.48242520856263, 35.05284508197598], [-79.48231202083682, 35.05295024142855], [-79.48220242637214, 35.05305760688376], [-79.47828846667869, 35.05698076146059], [-79.47814563454848, 35.057124153418236], [-79.4778258343073, 35.05700061574669], [-79.47749435596741, 35.05697561405232], [-79.47739104970972, 35.05659985237076], [-79.47759047570283, 35.0562851230563], [-79.47753927173162, 35.05621232334584], [-79.47710897871048, 35.055950537992175], [-79.47694458701346, 35.05569978213328], [-79.47720689507645, 35.05541152224736], [-79.47711167365632, 35.05528430518833], [-79.47682600939594, 35.05526665656335], [-79.47690685777152, 35.05475925696342], [-79.47688619651997, 35.05461733158353], [-79.47644871697656, 35.05461071329556], [-79.4763094781075, 35.05414816717336], [-79.47660861709716, 35.053911377842546], [-79.47649992094776, 35.053468682904054], [-79.47613161168121, 35.053151000007404], [-79.47588457497805, 35.05268035640748], [-79.47566179278755, 35.05272595012491], [-79.47505992154711, 35.052577402758466], [-79.47540577293154, 35.05233619655819], [-79.47515065139082, 35.05210749124081], [-79.47476796907972, 35.052035423194596], [-79.4747634775033, 35.05178759687681], [-79.47472125668496, 35.051511824867674], [-79.47473113815307, 35.051388278705545], [-79.47478952864655, 35.051153687561914], [-79.47482456294264, 35.05099410636754], [-79.47464220493994, 35.051103680585264], [-79.4744508637844, 35.051219873219274], [-79.47416969110041, 35.051437550114045], [-79.47401068929511, 35.05135518595181], [-79.47413465680434, 35.05116913088677], [-79.47416609783927, 35.05096469044512], [-79.47409423261655, 35.050840408056025], [-79.47391726450554, 35.05077642829087], [-79.4736181255159, 35.05063743759383], [-79.4732704775009, 35.050649939412224], [-79.47318693417945, 35.050738187487745], [-79.47317435776549, 35.050751424690844], [-79.46103721996005, 35.06349859067424], [-79.4649412981854, 35.065066939187965], [-79.4665717404263, 35.06284638999342], [-79.46880405390765, 35.061246380683464], [-79.47117291131218, 35.06221624301101], [-79.47117830120389, 35.062240507803985], [-79.47105882527109, 35.06238903759173], [-79.47109475788247, 35.06259271413852], [-79.470938451023, 35.06266991991692], [-79.4706994991574, 35.06263462585585], [-79.4706420069792, 35.062728743318154], [-79.47058361648573, 35.062970654110046], [-79.47063751540279, 35.06311035910408], [-79.47042461468041, 35.06319785842594], [-79.4706024811067, 35.06338315079796], [-79.47063751540279, 35.0636522651607], [-79.47038868206903, 35.06359564827829], [-79.47033568146728, 35.06377946918185], [-79.47017398471611, 35.063834615372194], [-79.46994401600334, 35.06415887421793], [-79.47003923742348, 35.06435960523886], [-79.46969787761546, 35.064332399964584], [-79.46972123381285, 35.064691950019885], [-79.46969338603904, 35.06492944335969], [-79.46985328615962, 35.06504855740614], [-79.46980208218844, 35.065226492880214], [-79.47022968026373, 35.06531693100968], [-79.47001947448722, 35.06559559746152], [-79.46982094680939, 35.06555662833152], [-79.46966643658051, 35.06567794725988], [-79.46963499554558, 35.06583823502209], [-79.46979938724257, 35.06574706220512], [-79.4700886447641, 35.065869851378395], [-79.46994401600334, 35.065996316681115], [-79.46982723501638, 35.06615145698836], [-79.46983442153866, 35.066315420120524], [-79.46977423441463, 35.06657129018], [-79.46960804608703, 35.06649997015786], [-79.46945263754286, 35.06655290873695], [-79.46931160204325, 35.067015384585964], [-79.46948228194724, 35.06692421308384], [-79.46951012972104, 35.06719625678072], [-79.4693412464476, 35.067376393324274], [-79.46955684211584, 35.06742344933548], [-79.46935202623104, 35.067654317497365], [-79.469449942597, 35.06770652008041], [-79.4694724004791, 35.06781754236427], [-79.46938526389654, 35.067957239063205], [-79.46943556955245, 35.06809620027913], [-79.46939604367995, 35.06809767076694], [-79.46859654307697, 35.068135903440236], [-79.4683441164821, 35.06830868549048], [-79.46810336798593, 35.06830942073246], [-79.46803419770903, 35.068138844414364], [-79.46798838362955, 35.06787709730201], [-79.46804767243829, 35.06751756127649]]]}}, {"type": "Feature", "properties": {"FID": 1, "instln_id": "00000", "instname": "Private Land", "area_size": 6.35820315943, "area_name": null, "area_type": null, "area_syskey": 1}, "geometry": {"type": "Polygon", "coordinates": [[[-78.99245979802298, 35.2097478712731], [-78.99291793881794, 35.209468963849574], [-78.99377942317554, 35.21044146584349], [-78.99295207479874, 35.2109574376434], [-78.99234930524301, 35.21034531710864], [-78.99276881848076, 35.2100686136257], [-78.99245979802298, 35.2097478712731]], [[-78.99335452004608, 35.21103156703517], [-78.99395549297124, 35.21062201964857], [-78.99434895506573, 35.2110183558614], [-78.99458072040908, 35.2112319362405], [-78.99398962895204, 35.211650287932294], [-78.99335452004608, 35.21103156703517]]]}}, {"type": "Feature", "properties": {"FID": 2, "instln_id": "37225", "instname": "Fort Bragg", "area_size": 231556.797585, "area_name": null, "area_type": null, "area_syskey": 2}, "geometry": {"type": "Polygon", "coordinates": [[[-78.98400215962181, 35.27456050000689], [-78.98397610847856, 35.26864851389445], [-78.98397251521743, 35.26777865791785], [-78.98397071858686, 35.26748308078473], [-78.983968023641, 35.26684718289993], [-78.9812092974031, 35.264687146472156], [-78.98206629018426, 35.26368522208067], [-78.98207886659826, 35.263680087736354], [-78.98248131184558, 35.2631996583653], [-78.98309845444587, 35.26246103849398], [-78.98310474265286, 35.26246103849398], [-78.9831307937961, 35.262458838027506], [-78.98421775529003, 35.26265761325821], [-78.98465703146402, 35.26185810844431], [-78.98523195324596, 35.261768622093534], [-78.98555085517185, 35.261082067787285], [-78.98574938284966, 35.26089575824355], [-78.9868372426589, 35.25987251512111], [-78.98788916985673, 35.258914542466755], [-78.98698276973492, 35.25813040481432], [-78.98788018670389, 35.257476095185616], [-78.98802301883408, 35.257372666834826], [-78.98868238225272, 35.25689220007032], [-78.98690281967464, 35.25552413788084], [-78.98592275769953, 35.25477297756138], [-78.98522386840838, 35.25424041241458], [-78.98488430523093, 35.25397559566027], [-78.98058227333469, 35.250694290255986], [-78.98387370053615, 35.24848687192216], [-78.98698276973492, 35.2464019104817], [-78.98962830824702, 35.24464116941011], [-78.9896651391737, 35.244616958953905], [-78.98960495204965, 35.24456853801983], [-78.9896184267789, 35.244289016607745], [-78.98969478357807, 35.24416869738307], [-78.98973520776586, 35.24400069036213], [-78.98983761570825, 35.243927324741605], [-78.98977653026893, 35.24356416394255], [-78.98967502064183, 35.2434108288946], [-78.98962561330119, 35.24317825795753], [-78.98939384795784, 35.2429442190226], [-78.98936959344518, 35.24284517412885], [-78.98917555734378, 35.242751264784516], [-78.9891405230477, 35.24258178748946], [-78.98904440331226, 35.24255317440471], [-78.98902464037602, 35.24249227985739], [-78.98909920054462, 35.24214818812234], [-78.98922406636912, 35.24209903204101], [-78.98920520174815, 35.24200145346292], [-78.98915848935337, 35.24193982482679], [-78.98889079139866, 35.24178648670747], [-78.98879646829381, 35.2417740142161], [-78.98865183953306, 35.24164488713406], [-78.98851260066401, 35.24160013281331], [-78.98833832749885, 35.24162874623433], [-78.98828442858179, 35.24137342612062], [-78.98782538947155, 35.24104547065724], [-78.98721094181712, 35.24080555608904], [-78.98706721137165, 35.24066322111681], [-78.98689473483708, 35.24055243444491], [-78.98679681847109, 35.24035653976064], [-78.98657583291117, 35.23974904312409], [-78.98651025589541, 35.239669070401845], [-78.98634406756783, 35.23958029325082], [-78.98613655673718, 35.2389463775465], [-78.98615003146644, 35.23855898217696], [-78.98627759223679, 35.2383469411248], [-78.98614464157474, 35.23820460183768], [-78.98611859043149, 35.23810261631854], [-78.98621740511275, 35.237876633560255], [-78.98608804771182, 35.23750757594862], [-78.98588413014231, 35.23730360302924], [-78.9856388900697, 35.23713925037569], [-78.9849831199122, 35.23689198705076], [-78.98489059343792, 35.23668067536269], [-78.98393568429077, 35.23588898535871], [-78.98376949596319, 35.23585743499454], [-78.98365181666095, 35.235591824465565], [-78.98367247791248, 35.23543847434426], [-78.98383597129423, 35.23524550224854], [-78.98381800498855, 35.23512076718955], [-78.98391412472395, 35.23496521496487], [-78.98404348212489, 35.234915320791885], [-78.98414229680616, 35.23468492671272], [-78.98410366924892, 35.23450809514439], [-78.98413331365332, 35.23442298105705], [-78.98442077454428, 35.23430191345142], [-78.98456809825089, 35.23414195718626], [-78.98449174145172, 35.234018687922685], [-78.98486094903355, 35.23380223251256], [-78.98497234012879, 35.23365768400183], [-78.98529842857697, 35.23350726522729], [-78.9854223960862, 35.23358137402423], [-78.98564877153783, 35.233463240167346], [-78.98560295745833, 35.23323724448351], [-78.98575297611082, 35.233041332131265], [-78.98554995685656, 35.233040598376256], [-78.98546551521986, 35.232953281481784], [-78.98586975709776, 35.232723615587915], [-78.9857134502383, 35.23243011190177], [-78.98559577093607, 35.23238094993051], [-78.98558588946793, 35.232209249677744], [-78.98533436118834, 35.232076438549214], [-78.98535232749403, 35.23188565975207], [-78.98516278296904, 35.23192968566814], [-78.98482860968332, 35.2318291597914], [-78.98433723122282, 35.232066899620015], [-78.98392220956151, 35.2319971920264], [-78.98333740631146, 35.23214687983784], [-78.98286668910252, 35.231859977956645], [-78.98264390691202, 35.231955367441486], [-78.98240495504642, 35.23178660135351], [-78.98221990209787, 35.23183576368494], [-78.9820474255633, 35.2317939390168], [-78.98162431906441, 35.232172561542434], [-78.98131440029134, 35.232287028469734], [-78.98095866743878, 35.23228335966047], [-78.98056071376787, 35.23214614607472], [-78.98051489968836, 35.23196050379519], [-78.98035859282892, 35.23189886752939], [-78.98037116924289, 35.231761653293326], [-78.98008370835193, 35.23146374351128], [-78.98002441954317, 35.23130965181543], [-78.98014928536769, 35.23118344316082], [-78.98021935395987, 35.230693282105314], [-78.98037835576517, 35.2306279759926], [-78.98052028958008, 35.23045040180239], [-78.97984385817104, 35.23028089880372], [-78.97993099475362, 35.23018330600748], [-78.98009897971177, 35.22979880392348], [-78.98009808139649, 35.22969240512412], [-78.97986451942258, 35.22965938477872], [-78.97973067044524, 35.22949941935962], [-78.97957256695521, 35.22948547740449], [-78.9794126668346, 35.229174351045465], [-78.9790713070266, 35.22902612533219], [-78.97882786358456, 35.229100972013335], [-78.9788251686387, 35.22896375304514], [-78.97873803205614, 35.228867626250064], [-78.97773371556835, 35.22918682547433], [-78.97783702182603, 35.22943851501166], [-78.97761513795083, 35.22964470906534], [-78.9772629983594, 35.229458327274436], [-78.97707165720387, 35.229443651524704], [-78.97661171977832, 35.22912958984378], [-78.97669166983863, 35.228929998611], [-78.97661261809361, 35.2287216013587], [-78.976202986324, 35.22835176829737], [-78.97597032266538, 35.22784764789755], [-78.9760035603309, 35.22772436906987], [-78.97586342314655, 35.22749688978902], [-78.97573765900677, 35.22748735032137], [-78.9750567360213, 35.22676601655754], [-78.9751420759733, 35.22650184389024], [-78.97531275587731, 35.22637856301782], [-78.97525346706855, 35.2260710938354], [-78.97545468969223, 35.22578123518607], [-78.9754439099088, 35.22565721939703], [-78.97584186357973, 35.225537606355864], [-78.97599008560162, 35.225404784306], [-78.976111358165, 35.225152348429674], [-78.97650751520536, 35.22478029761055], [-78.97648505732325, 35.224473556204565], [-78.97631437741924, 35.22454033493476], [-78.97625598692576, 35.22441558341622], [-78.97612123963313, 35.224350272250646], [-78.9762712582856, 35.22390189867219], [-78.97626766502447, 35.223664868758185], [-78.97644912471188, 35.22349902079059], [-78.97643385335206, 35.22323557133107], [-78.97647068427871, 35.223220160611966], [-78.98265468669544, 35.22047260277962], [-78.98228727574418, 35.210409905584285], [-78.98437765541061, 35.20902270997914], [-78.98692797250258, 35.207329418460894], [-78.98697558321267, 35.207299324967636], [-78.9878226945257, 35.20669818675306], [-78.98902104711487, 35.20852947916357], [-78.99083294904321, 35.207640628566665], [-78.99102788345988, 35.208024501653135], [-78.99122551282241, 35.208408372924836], [-78.99203399657824, 35.208007620083286], [-78.99185074026025, 35.2076956773999], [-78.99240050921422, 35.20745713218634], [-78.99259095205447, 35.20807734828392], [-78.99385398334411, 35.208301212102334], [-78.9966082180056, 35.20847736680422], [-78.99765385699646, 35.20886710772393], [-79.00231072343, 35.20772870668192], [-79.00073418010615, 35.20602584618846], [-78.99901390633683, 35.206076492123564], [-78.9987237505, 35.20492263776454], [-78.99712385097877, 35.204968146325896], [-78.99379469453537, 35.20615502996043], [-78.9922307276255, 35.20680461569888], [-78.99154621137889, 35.207088670202346], [-78.99109256216035, 35.2056838017998], [-78.98961752846363, 35.19865909521946], [-78.989030928583, 35.197175534548165], [-78.99178336661393, 35.196783535268295], [-78.99173306095801, 35.196553032935874], [-78.9919791993459, 35.196509721915085], [-78.99187050319652, 35.19601201056095], [-78.99185972341309, 35.19596062425928], [-78.99210137022456, 35.19591951519454], [-78.99227744002026, 35.196713063287035], [-78.99357730223657, 35.19652513770478], [-78.99483853689566, 35.19676444911274], [-78.99472085759342, 35.19610450582207], [-78.99490501222668, 35.19613900799566], [-78.99507928539182, 35.1970933176275], [-78.99630458743954, 35.19731867988107], [-78.99613390753554, 35.1963665751566], [-78.99691723846338, 35.196524403619634], [-78.99828447432603, 35.19677178994233], [-78.9983015423164, 35.19669104078035], [-78.99834645808062, 35.196520733193736], [-78.99849557841782, 35.19634748890309], [-78.9987417168057, 35.19619846915408], [-78.99873363196814, 35.196009074201726], [-78.99839586542124, 35.19578664468225], [-78.99797994544465, 35.19572571503766], [-78.99788113076339, 35.19540197965347], [-78.99750024508286, 35.1953234314179], [-78.9973044123509, 35.19543941850535], [-78.9962156542264, 35.1950224514945], [-78.99597400741493, 35.19499602393577], [-78.99565510548902, 35.19513550262089], [-78.99546645927934, 35.19535499754036], [-78.99513048936302, 35.19531829274564], [-78.99500921679964, 35.19514945047624], [-78.9950298780512, 35.194962255376], [-78.99523110067487, 35.19449463279001], [-78.99519157480236, 35.19440654032181], [-78.99519786300934, 35.19386109899606], [-78.99520954110804, 35.19130121978715], [-78.99621924748755, 35.19110373794246], [-78.9965624039261, 35.191133837436794], [-78.99684716987123, 35.1912762592831], [-78.99706725711587, 35.191867967991996], [-78.99721637745306, 35.19244939468443], [-78.99788023244811, 35.19295226668772], [-78.99873812354456, 35.1934081523394], [-78.99908127998313, 35.1934925753275], [-78.99975681307689, 35.19342283460451], [-78.99996252727698, 35.19328188475001], [-79.00235743582478, 35.192572727084254], [-79.00296379864164, 35.19224751088777], [-79.00348661813707, 35.191886321170884], [-79.00395823366131, 35.19146126048392], [-79.00441188287985, 35.191312965904075], [-79.00560035400089, 35.1912674496916], [-79.00625792078897, 35.19126231076279], [-79.00761437686819, 35.19377300584088], [-79.00918193703919, 35.196668284183865], [-79.01197839251904, 35.20182138942696], [-79.01234400683973, 35.20249670092634], [-79.01324771201567, 35.20236017101086], [-79.01624808506506, 35.201135795704204], [-79.02108461455543, 35.19916192878399], [-79.02160294247443, 35.191840805279625], [-79.01431491057338, 35.19411289807122], [-79.01280214763469, 35.19459080029207], [-79.01299708205137, 35.19293317963202], [-79.01313991418156, 35.19168884074834], [-79.0132575934838, 35.19065664901874], [-79.00611059708235, 35.19097599850101], [-79.004750547742, 35.188457875408574], [-79.00473617469746, 35.18846228035676], [-79.00382887626037, 35.1868933695427], [-79.00330875171079, 35.18698220432855], [-79.001536375655, 35.18634420689251], [-78.99856474869469, 35.186382384095175], [-78.998461442437, 35.18599987708119], [-78.99936424929767, 35.18598813019622], [-78.99862044424232, 35.18419303938106], [-78.99698551042499, 35.18300656904541], [-78.9999319845573, 35.18026866391022], [-78.99724692017271, 35.17529776106007], [-78.99717685158053, 35.17517513671976], [-78.99710408804252, 35.17505324647366], [-78.99702862955864, 35.174932090325015], [-78.9969513744442, 35.17481240255847], [-78.99687052606862, 35.174693448898125], [-78.99678788106246, 35.17457596363064], [-78.99670343942576, 35.1744592124779], [-78.99661540452789, 35.1743439297286], [-78.99646897913655, 35.17416182670872], [-78.99231876252334, 35.175122268683666], [-78.99254603629026, 35.180751052924165], [-78.99140337924871, 35.1810410723384], [-78.99141595566267, 35.180296564722674], [-78.9906389129418, 35.17959904153827], [-78.98956003628543, 35.17655483345027], [-78.98963818971517, 35.17624570705383], [-78.9896426812916, 35.176216336313686], [-78.98962112172477, 35.17612455268233], [-78.98964178297629, 35.17602616051444], [-78.98960944362607, 35.17593657948191], [-78.9895959688968, 35.175929971041164], [-78.98947469633343, 35.17587122932213], [-78.9894315771998, 35.17580514483745], [-78.98938935638142, 35.17566489869758], [-78.98937498333687, 35.17561790517253], [-78.98931749115869, 35.17555916322797], [-78.98908213255422, 35.17549014138889], [-78.9890084707009, 35.17537779720638], [-78.98899679260221, 35.17537412582524], [-78.98892672401003, 35.17522506761119], [-78.98890785938906, 35.17518468233375], [-78.98883958742748, 35.17511125450514], [-78.9888198244912, 35.175096568931465], [-78.98874616263791, 35.17504443512349], [-78.9887919767174, 35.17497834996673], [-78.98881084133836, 35.17492327896172], [-78.98884497731918, 35.17481974537131], [-78.98883060427463, 35.17478963983446], [-78.9887973666091, 35.17475586287743], [-78.98871651823352, 35.17467362327115], [-78.9885862625173, 35.174581837898046], [-78.98842007418972, 35.17446508675375], [-78.9883868365242, 35.17443057537709], [-78.98830958140977, 35.17435200686922], [-78.98822424145776, 35.17427784400241], [-78.98821166504378, 35.1742191010896], [-78.98819190210753, 35.174125846628314], [-78.98806344302187, 35.17401056340631], [-78.98800864578955, 35.173833599670985], [-78.98798169633102, 35.173743281931486], [-78.98741126612552, 35.1714676823606], [-78.98611589548563, 35.171483102901156], [-78.9860152841738, 35.170712806608655], [-78.98863207659682, 35.17066801317744], [-78.98864644964135, 35.17064671793099], [-78.98864734795664, 35.17064671793099], [-78.98922765963026, 35.169799309459265], [-78.98878299356456, 35.16958855745416], [-78.988951876838, 35.16940277213255], [-78.98894918189214, 35.16940130347219], [-78.98896085999084, 35.169388819858064], [-78.98881712954537, 35.169321995773366], [-78.98884497731918, 35.169299965843315], [-78.9888440790039, 35.169299965843315], [-78.98484208441259, 35.16740536952984], [-78.98171325227756, 35.165924175699125], [-78.98095327754709, 35.16558049375048], [-78.98000465660692, 35.1652015606877], [-78.97669256815391, 35.16398543800246], [-78.9758041343378, 35.16362191953911], [-78.97510973662307, 35.16326500892164], [-78.97508278716455, 35.16321507068566], [-78.97443600015988, 35.16281629808356], [-78.9739104857186, 35.162410913986804], [-78.97331400436987, 35.16190564982028], [-78.9696623527394, 35.15888060873557], [-78.96204104586788, 35.16389584370379], [-78.95617594537705, 35.168480448204114], [-78.95809744177005, 35.17153744192555], [-78.9566978665572, 35.176620183060535], [-78.95552376848067, 35.18091919088783], [-78.95415473598752, 35.18595068698904], [-78.95383134248517, 35.18644332074688], [-78.95073215475453, 35.18911567835892], [-78.94952571732779, 35.19104720959371], [-78.94345220769101, 35.20073207078316], [-78.93813507952358, 35.20062343173449], [-78.93459392067308, 35.20055883547448], [-78.93204090863524, 35.20052139898211], [-78.9301050391977, 35.202882066385044], [-78.92648123534104, 35.2009067738135], [-78.92635726783185, 35.20036798258797], [-78.90887156082401, 35.19126891795691], [-78.90841701329019, 35.18515336283523], [-78.9054004705657, 35.17790513663498], [-78.90501958488517, 35.17532933496205], [-78.90529716430801, 35.17378366792495], [-78.90501868656989, 35.172174086979034], [-78.90496658428339, 35.17037942539773], [-78.90393980991351, 35.16715055030138], [-78.90295795130783, 35.1639626722474], [-78.90331817573681, 35.162616543853616], [-78.90186919318333, 35.161349708731315], [-78.90862093085971, 35.1610831200448], [-78.91020735565168, 35.16006743117552], [-78.90948870342429, 35.15908991964384], [-78.91298135324944, 35.15849209688531], [-78.91320772870105, 35.157678345824515], [-78.91422911317926, 35.157664391538574], [-78.91769391523059, 35.15759094788894], [-78.92017775699152, 35.15772094310361], [-78.92218100007538, 35.15454444688542], [-78.92327784303744, 35.15455840170651], [-78.92319070645487, 35.15244091384909], [-78.92307302715264, 35.152438710399096], [-78.92307662041377, 35.15052315530067], [-78.92307841704434, 35.146698520636086], [-78.9199900090971, 35.14834459726613], [-78.914380030147, 35.14419445177759], [-78.9107256835707, 35.135873690837414], [-78.9049836522738, 35.138665982382214], [-78.90448418897576, 35.137519251771906], [-78.90394160654408, 35.136207213464296], [-78.90346909270457, 35.13523896558816], [-78.90282050906936, 35.13382183545622], [-78.9024584880098, 35.133369288963586], [-78.90198777080084, 35.132926290528935], [-78.90608049523586, 35.13047689913049], [-78.9079723472245, 35.13164356505054], [-78.92385366313464, 35.12479467390674], [-78.92544368118774, 35.12639049790764], [-78.9361147684493, 35.121744740965816], [-78.9373176126149, 35.12346920515632], [-78.94402982441878, 35.11872849405827], [-78.94441340504515, 35.11880050320288], [-78.95137714512862, 35.11447837221765], [-78.9524614116767, 35.11494939422365], [-78.95505664453287, 35.1145312796614], [-78.95759438521087, 35.11343785217554], [-78.95771925103537, 35.113719293582626], [-78.95880172095289, 35.11325561283469], [-78.95888436595905, 35.11288304968806], [-78.96293307294513, 35.112828671492636], [-78.97721628596463, 35.10997082580478], [-78.97942254830272, 35.10953210932618], [-78.98276338284484, 35.108864109348126], [-78.98536041233157, 35.10834381514303], [-78.99581500560963, 35.10626334000645], [-78.99892497312368, 35.10563205852532], [-78.99892587143896, 35.10629200109851], [-79.00130281368108, 35.10626554470619], [-79.00389624990669, 35.10623614870465], [-79.00560484557731, 35.10621924599895], [-79.00650226254628, 35.10621189699541], [-79.00778326014161, 35.105236678343864], [-79.00847047133405, 35.10471342132608], [-79.01092736363647, 35.103460383494], [-79.01072524269752, 35.103436865884284], [-79.01076207362418, 35.10288934461468], [-79.01247605918651, 35.101822218766216], [-79.01962934379495, 35.09738820535954], [-79.03100920181575, 35.09028431478106], [-79.02065072827314, 35.08771823589583], [-79.018377990604, 35.08417881100403], [-79.01944788410752, 35.07060701958663], [-79.02031745330268, 35.07007398241473], [-79.02137297376167, 35.06813222722244], [-79.02419727701535, 35.06666613836034], [-79.03324870181939, 35.065239727734685], [-79.03645748401469, 35.06609116552957], [-79.03997259172195, 35.06832118460332], [-79.0458879978687, 35.06566397721065], [-79.04751574516375, 35.07018206057788], [-79.04703155322555, 35.07820738328004], [-79.04762623794372, 35.078221351182215], [-79.05561765071235, 35.07535861641488], [-79.05941303278829, 35.07399705451736], [-79.06107850932528, 35.073401547842295], [-79.06251850872593, 35.07242593677442], [-79.06767933003391, 35.068938050206334], [-79.06791738358423, 35.06877703329359], [-79.07016317179486, 35.06693744766305], [-79.07197956529959, 35.065451485114416], [-79.07304766217256, 35.06425372520143], [-79.07823004304736, 35.061042700777776], [-79.08138312969506, 35.059093377494065], [-79.085093171819, 35.05679618990345], [-79.09113344379024, 35.05305245922817], [-79.0944769732782, 35.05098233999984], [-79.09740458278957, 35.04916588665775], [-79.09798040288676, 35.04917691787285], [-79.09817443898815, 35.049883647947716], [-79.09907634753354, 35.049201186540785], [-79.11177403407635, 35.04940121892324], [-79.11542388907621, 35.04945563941308], [-79.1166168517737, 35.04947623094033], [-79.12490920016256, 35.0495931613002], [-79.12936214902656, 35.04969097084371], [-79.12942772604231, 35.049693912482326], [-79.12906121340635, 35.04900335991606], [-79.12923548657147, 35.04882318283348], [-79.12976549258919, 35.04865109496311], [-79.13019039571863, 35.048217932009294], [-79.13017063278238, 35.04788404931929], [-79.13022722664527, 35.04788772644886], [-79.13114889812691, 35.047921556033124], [-79.13334258405105, 35.04799583398423], [-79.13737512136203, 35.04812968121071], [-79.13962629946434, 35.048202488126414], [-79.14203378442612, 35.0483275099515], [-79.14358517492201, 35.048333393326786], [-79.15220900165075, 35.04656615542044], [-79.15489316772008, 35.046021194195816], [-79.15470901308682, 35.045033488675294], [-79.15461379166668, 35.04452234821782], [-79.15694402151401, 35.04422448791522], [-79.1590478759097, 35.04396560597995], [-79.1625486105724, 35.043538301900185], [-79.16390057507519, 35.04337355756163], [-79.17501722671771, 35.042111487232845], [-79.17864372552023, 35.04170623790466], [-79.17932644513624, 35.041628276823324], [-79.18195491565794, 35.04133628984817], [-79.18361320567266, 35.04114727001562], [-79.18526520748038, 35.04096854658111], [-79.18763765814607, 35.04070671236616], [-79.19573417380298, 35.03982411894351], [-79.19910914432589, 35.03945710437201], [-79.20250926767675, 35.03963583111277], [-79.20720565998278, 35.03988075230771], [-79.21917301619948, 35.04050960066196], [-79.22384425567755, 35.04075157727716], [-79.2265104554412, 35.04088911381805], [-79.22983601862346, 35.04106415998978], [-79.23294059624581, 35.041223760584195], [-79.2398342677371, 35.041581205945754], [-79.24567780866111, 35.04188643068536], [-79.24983521179661, 35.0420997195856], [-79.25149080686545, 35.04218650594427], [-79.25316257160944, 35.042268879351916], [-79.27115223349173, 35.043193368060926], [-79.27427477741976, 35.04334781622874], [-79.2784115193037, 35.046399946309464], [-79.28306838573724, 35.044511316374134], [-79.28541748020554, 35.04391338821745], [-79.28741174013656, 35.04401341094454], [-79.29955247120313, 35.04462825384148], [-79.3038464182618, 35.04484374194346], [-79.31360302056399, 35.045335023272614], [-79.31759872694829, 35.04553506512304], [-79.3228107522275, 35.045798354753046], [-79.32771375704888, 35.04604178658889], [-79.33353124682966, 35.046333021306445], [-79.33703467643824, 35.04650290774551], [-79.33749102060261, 35.04712214450202], [-79.33823213071211, 35.04814438968377], [-79.33871093275862, 35.04849592140161], [-79.33886813793336, 35.049981457143346], [-79.33923375225405, 35.05328483878582], [-79.33948617884892, 35.053851812716445], [-79.34027489966849, 35.05562771725721], [-79.34077436296653, 35.05675059845854], [-79.34046983408517, 35.057298429458505], [-79.33974219870493, 35.05858011903627], [-79.33799497547707, 35.05946250980573], [-79.33976106332591, 35.06196844759099], [-79.34151367644546, 35.06437284023389], [-79.34276053805999, 35.06608748921967], [-79.34583097970155, 35.070308519199294], [-79.34865797790106, 35.07419114464279], [-79.35133046587168, 35.07910573506657], [-79.3540604460205, 35.08412000306281], [-79.35461829981202, 35.08514399028075], [-79.35654967767314, 35.08869586928255], [-79.35939464217834, 35.09391902623429], [-79.36283339308643, 35.09860311815036], [-79.36439646168103, 35.10134009672162], [-79.36472344844448, 35.101910411514645], [-79.36661709706368, 35.10522491979611], [-79.36847840633263, 35.10769123805448], [-79.36871735819824, 35.10795138765531], [-79.37301130525692, 35.11266700637303], [-79.37742203330257, 35.115737119169246], [-79.37891862656613, 35.1167783446541], [-79.38066135821757, 35.11799002925922], [-79.37198812414819, 35.12645588781907], [-79.36685694724457, 35.131436387562424], [-79.36397964338914, 35.13354413677026], [-79.36010970114461, 35.137204100042986], [-79.35246234312983, 35.14478797227803], [-79.34903347368987, 35.148188144292774], [-79.34454728716035, 35.1526355516961], [-79.34216854828769, 35.154992468893724], [-79.33990299714081, 35.15724282408773], [-79.33821685935229, 35.158918798836204], [-79.33597107114167, 35.16114921649483], [-79.33523355429331, 35.1618762739001], [-79.33401633708317, 35.16218178295139], [-79.3311803557308, 35.164232923380176], [-79.32901092431935, 35.164757266766614], [-79.3270175627036, 35.165437292509864], [-79.32616775644472, 35.16707344346106], [-79.32500353983633, 35.16806040549582], [-79.32399113851099, 35.16769984262925], [-79.32330392731855, 35.16672976636932], [-79.32164563730382, 35.16770278001142], [-79.32014275583329, 35.16756986336272], [-79.31810178350747, 35.167696905247006], [-79.31629706810143, 35.16871763919451], [-79.31557751755875, 35.168951157821844], [-79.3151247666555, 35.16854139827698], [-79.31440431779752, 35.16824031915924], [-79.31316554102055, 35.168784463775864], [-79.31098173656456, 35.17124738860464], [-79.31094939721433, 35.17198830756503], [-79.30895334065274, 35.172959055390066], [-79.30626468300699, 35.17486894220023], [-79.30477258131987, 35.17612234987392], [-79.30376916314735, 35.178319254487704], [-79.3030711721715, 35.178848646755384], [-79.3014461198223, 35.17942943236451], [-79.30017680032567, 35.18170921439238], [-79.2994563514677, 35.18247867228252], [-79.29796514809586, 35.18317910757766], [-79.29724919081431, 35.18411374611162], [-79.29570678347125, 35.18417101348064], [-79.2947527726394, 35.18506819699357], [-79.29408981595962, 35.18659382673902], [-79.29371791343195, 35.18768186664415], [-79.29284744592152, 35.187989481222594], [-79.29282319140883, 35.18797332965078], [-79.29138768358462, 35.1875409068301], [-79.29115232498013, 35.18835142242157], [-79.28956230692702, 35.18877943599828], [-79.28871519561399, 35.18918248617317], [-79.28821483400066, 35.18987185151034], [-79.2874997750344, 35.19137903777998], [-79.28636879609152, 35.192180705593685], [-79.28521086769015, 35.19317250162148], [-79.28337111798801, 35.1938625672145], [-79.28186733820219, 35.19523240346115], [-79.279528125202, 35.19573525823802], [-79.27788061497071, 35.195675796740545], [-79.27650798921638, 35.19711240370577], [-79.27461793385834, 35.197376672021086], [-79.27328303734595, 35.19756019117866], [-79.27277459089507, 35.19783913950409], [-79.27098424853357, 35.198675244666994], [-79.26956041880803, 35.19821718636361], [-79.26821653914281, 35.198941710087745], [-79.26659328342419, 35.19901805263671], [-79.26506794407153, 35.200086840788266], [-79.26407620399772, 35.20011106453257], [-79.26395582974963, 35.200844379917235], [-79.26324077078337, 35.201710549720524], [-79.26241072746073, 35.20201444100485], [-79.26197324791731, 35.20355002884841], [-79.26050001085115, 35.20420770959836], [-79.25887136524081, 35.20411155348185], [-79.25601112937579, 35.20354562471829], [-79.25568144766646, 35.20303768010913], [-79.25425312636452, 35.20326743001516], [-79.25262448075419, 35.204325886043605], [-79.25193277798532, 35.20625925762665], [-79.25090420698486, 35.2067877338754], [-79.25044786282045, 35.20765090435169], [-79.24956392058075, 35.20840250110259], [-79.24946330926892, 35.209253176922424], [-79.24921447593519, 35.21121945905168], [-79.24805385258794, 35.21208405030482], [-79.24669290493232, 35.21277909279395], [-79.24546131467761, 35.21284661508401], [-79.2437176847109, 35.212911201569774], [-79.24228846509365, 35.21159891152484], [-79.24071461671566, 35.211332487633406], [-79.24000494764111, 35.210569908632216], [-79.23915963295863, 35.20968915400039], [-79.23618081947609, 35.21001576829093], [-79.2335002466679, 35.21017063438299], [-79.2315679704915, 35.2105207334171], [-79.23061485797489, 35.21086789511953], [-79.22957730382159, 35.21076000358665], [-79.22933386037957, 35.21003485133246], [-79.22854783450586, 35.20921207458557], [-79.22766119732032, 35.20862196016973], [-79.22737373642936, 35.20749970338352], [-79.22633797890661, 35.206483860452614], [-79.22549985074642, 35.2064148648794], [-79.22452697529359, 35.20579463608352], [-79.2241658525493, 35.20518321063374], [-79.22314446807111, 35.20347515860391], [-79.22297288985183, 35.202455595169475], [-79.22266027613291, 35.20186763376308], [-79.22158139947653, 35.20163053950727], [-79.21988807516573, 35.20202545153728], [-79.21927003425019, 35.20261120971073], [-79.2184417875581, 35.20231686308649], [-79.21785428936221, 35.202412287295985], [-79.21734853785718, 35.20237778778704], [-79.21735123280303, 35.20141987003672], [-79.21622564375188, 35.20063224031142], [-79.21632535674843, 35.19966035489487], [-79.21590404688011, 35.19910834228955], [-79.21481349212503, 35.19803954126235], [-79.21548094038123, 35.19717920494445], [-79.21561838261972, 35.19688850904367], [-79.21426372317109, 35.19635189342353], [-79.21361064795944, 35.19555613952112], [-79.21233414194052, 35.195011440012735], [-79.211270536644, 35.1944571935027], [-79.21063991931443, 35.19457905464907], [-79.20952780499255, 35.19478093265196], [-79.20927088682124, 35.194863151913005], [-79.20890078092414, 35.19489545231423], [-79.20863757454585, 35.19483745840288], [-79.20844084349862, 35.194733216078376], [-79.20827824843215, 35.194800753374295], [-79.20811385673514, 35.194931423200465], [-79.20797282123551, 35.19494463699142], [-79.20780573459264, 35.19475523911583], [-79.20757217261874, 35.194618696187405], [-79.20730986455575, 35.19446893916333], [-79.20679512989787, 35.19424210079224], [-79.20688226648045, 35.19415107162383], [-79.2068166894647, 35.19407105396413], [-79.20653551678072, 35.193974885846806], [-79.20626063230375, 35.193980024604045], [-79.20606839283292, 35.19412978252939], [-79.20599652761017, 35.194354418899806], [-79.20603785011326, 35.19464365566459], [-79.20615283446963, 35.19504227215789], [-79.20600551076302, 35.195272044680664], [-79.20569828693581, 35.19541592746304], [-79.20554736996806, 35.19542987527024], [-79.20537579174876, 35.195443088980106], [-79.20530751978717, 35.19557302367933], [-79.20512516178447, 35.195687542224974], [-79.20484039583935, 35.195698553615095], [-79.20453766358858, 35.195694149059236], [-79.20428074541726, 35.19576021737213], [-79.20394387718567, 35.19559064192763], [-79.2037947568485, 35.19547392096145], [-79.20371211184235, 35.19534839067855], [-79.20372738320216, 35.195107606903], [-79.20363934830434, 35.19479488056819], [-79.20356927971216, 35.19455996797557], [-79.20343093915838, 35.194356621214084], [-79.20344261725708, 35.194224482251485], [-79.20364743314187, 35.193985897469055], [-79.20409030257701, 35.19366582570661], [-79.20436518705398, 35.19322829437658], [-79.20452329054402, 35.19290381492218], [-79.20443256070031, 35.192723955842816], [-79.20415947285389, 35.192650543859244], [-79.20366809439342, 35.192627052010494], [-79.20324588620983, 35.19246554536648], [-79.20287757694328, 35.19239653788432], [-79.20245177549855, 35.19240608147578], [-79.20217509439101, 35.19246554536648], [-79.20205472014293, 35.19279002657131], [-79.2019927363883, 35.19301466664623], [-79.20193254926427, 35.19318277923713], [-79.2018732604555, 35.19329216235183], [-79.20175827609911, 35.19337658546044], [-79.20155795179073, 35.19343458041468], [-79.20134954264479, 35.19343090984919], [-79.20100908115205, 35.19341035467935], [-79.2008869102734, 35.19338612893679], [-79.20075755287246, 35.193244444903776], [-79.20072251857638, 35.193119645291816], [-79.20069736574843, 35.192955203157425], [-79.20064885672308, 35.19259768719002], [-79.20061651737285, 35.192317986742864], [-79.20035241267928, 35.19227320521703], [-79.20007483325644, 35.19240241086383], [-79.19971011725103, 35.192622647288104], [-79.19942355467536, 35.19276433240551], [-79.19910375443418, 35.192667428621355], [-79.19908039823679, 35.19241048620993], [-79.19895193915113, 35.192237233153804], [-79.19869771592568, 35.19217263022476], [-79.1984129499806, 35.19222181655039], [-79.19797726706773, 35.19225411800179], [-79.19770058596018, 35.19231945498922], [-79.1975460757313, 35.1924413193422], [-79.19727029293904, 35.192516199757584], [-79.19683191508032, 35.192656416820384], [-79.19651570810026, 35.19280030423535], [-79.19635041808796, 35.19300732547713], [-79.19592461664323, 35.19299411137107], [-79.19579256429645, 35.192951532570284], [-79.19555990063783, 35.1927702053584], [-79.19542335671461, 35.19256538587521], [-79.1954008988325, 35.19225411800179], [-79.1954188651382, 35.19191348386804], [-79.19526165996345, 35.19169251139253], [-79.19499845358519, 35.19162790803034], [-79.19477028150297, 35.19166314623428], [-79.19468314492042, 35.19181511081363], [-79.19450438017884, 35.19216382073046], [-79.19440197223643, 35.192505187936135], [-79.1944154469657, 35.19274671354423], [-79.19446036272991, 35.19287812079236], [-79.1946543988313, 35.19304549954922], [-79.19494994455982, 35.193399342979085], [-79.1952715414316, 35.19384568270081], [-79.19525537175647, 35.19411803681975], [-79.19518709979486, 35.194241366686455], [-79.19492928330827, 35.194316245442764], [-79.19455917741118, 35.194387453607774], [-79.19416930857781, 35.19446673685208], [-79.19391149209125, 35.19454895643113], [-79.19365457391996, 35.194615025675425], [-79.19322877247522, 35.19462456900626], [-79.19301138017642, 35.19458933208681], [-79.19299700713186, 35.19439552875658], [-79.1930473127878, 35.19424063258067], [-79.19322248426822, 35.19401085714066], [-79.19333207873291, 35.19377814461089], [-79.19325123035732, 35.19360562858287], [-79.19312995779396, 35.193495511777684], [-79.19287932782964, 35.19326646834483], [-79.19273200412303, 35.19309321711409], [-79.19254515454391, 35.192982365497215], [-79.19228015153506, 35.19293978669027], [-79.19200616537336, 35.1929199655139], [-79.19169355165444, 35.19293758433757], [-79.1914734644098, 35.19304256308277], [-79.1912336142289, 35.193204068579725], [-79.19106023937904, 35.193316388122405], [-79.19090752578072, 35.19339273595819], [-79.19074672734484, 35.19339714063883], [-79.19055808113515, 35.19333327274612], [-79.19043860520235, 35.19319158862095], [-79.19037572313246, 35.1930198054642], [-79.19025714551492, 35.19283994664162], [-79.19020324659787, 35.19269018633862], [-79.19024367078566, 35.19257346120513], [-79.1899615997864, 35.19250885854343], [-79.18978193672956, 35.192474354828086], [-79.18964898606751, 35.192503719693136], [-79.1894890859469, 35.1924699500974], [-79.18928157511624, 35.19241929567749], [-79.18906328450217, 35.19243177575489], [-79.18889170628287, 35.19249931496405], [-79.18875695899024, 35.19259842131067], [-79.18868778871335, 35.19269899577585], [-79.18864736452556, 35.192845085470644], [-79.18865275441728, 35.193009527827925], [-79.18866353420067, 35.1934198981517], [-79.18868329713693, 35.19377887872088], [-79.18862939821989, 35.19406664932001], [-79.18829971651056, 35.1939829610366], [-79.18796015333312, 35.193955064922974], [-79.18748674117832, 35.19393230756002], [-79.18716783925241, 35.19378768804004], [-79.18668903720591, 35.193640865929005], [-79.18634857571318, 35.19358800990408], [-79.18577185730071, 35.19355717720696], [-79.18548529472503, 35.193660686929505], [-79.18510530735979, 35.19374070499338], [-79.18474148966968, 35.193510194027], [-79.18466243792466, 35.1932451790186], [-79.18465165814125, 35.192855363127734], [-79.18441360459092, 35.1924640771228], [-79.18410278750258, 35.19242076392199], [-79.18365991806743, 35.192312847880515], [-79.18345779712847, 35.1920749916095], [-79.18328352396334, 35.19180923779168], [-79.18321345537117, 35.191580189604835], [-79.18349732300099, 35.19126231076279], [-79.18372729171375, 35.191008300447706], [-79.18368866415653, 35.19073299935396], [-79.18331227005244, 35.1905428575206], [-79.18255948184424, 35.19021983562533], [-79.18189293190333, 35.189989314669354], [-79.18097754862869, 35.18992177337367], [-79.18057420506605, 35.18995113916131], [-79.18034513466857, 35.19015082623575], [-79.18018164128684, 35.19047751910449], [-79.17986902756792, 35.19043640726516], [-79.17940459856597, 35.190190469934805], [-79.17896352576142, 35.189926912387286], [-79.17849101192189, 35.19003042673491], [-79.17841824838386, 35.190286642531724], [-79.17854041926253, 35.190601588636305], [-79.17870391264427, 35.19088790221748], [-79.17877847281287, 35.191155127316264], [-79.17868325139273, 35.19142455392994], [-79.17845328267995, 35.19161469369994], [-79.17825475500214, 35.19180336476932], [-79.17800951492953, 35.191945785442], [-79.17763401914073, 35.192118304994665], [-79.17741123695023, 35.19229082418097], [-79.17711389459114, 35.192561715270465], [-79.17686506125742, 35.19272468996231], [-79.1763467333384, 35.192881057264756], [-79.17594069482993, 35.19300365489233], [-79.17540170565938, 35.193088078300775], [-79.1750468711221, 35.192953734922575], [-79.17482858050802, 35.192693856937574], [-79.17450428869041, 35.19222915779048], [-79.17405692767886, 35.19220419757149], [-79.17332300409164, 35.19199056714832], [-79.17290438916918, 35.19172701543992], [-79.17240133261001, 35.19120578252437], [-79.17212195655661, 35.190669129366896], [-79.17211027845791, 35.190227177046296], [-79.17189737773555, 35.189746312571415], [-79.1718821063757, 35.18939685812931], [-79.17193241203161, 35.189140639526705], [-79.1722531105881, 35.18881614374723], [-79.17257021588343, 35.18865389537153], [-79.1729313386277, 35.18847696351563], [-79.17316130734046, 35.18820532464685], [-79.1732286809868, 35.18793368487], [-79.1731253747291, 35.187325795809244], [-79.17296457629321, 35.18675094001393], [-79.17237168820562, 35.1860453962444], [-79.17160362863758, 35.18537361890836], [-79.1708499421141, 35.185060120917754], [-79.17022291804571, 35.18494265063322], [-79.16969920023499, 35.18500652512151], [-79.16889161479445, 35.18519080640978], [-79.16814780973911, 35.18537508728018], [-79.16780734824637, 35.18504984227463], [-79.16762499024367, 35.18445661552627], [-79.16748395474404, 35.183956627738084], [-79.16768787231356, 35.18356529887983], [-79.16780644993109, 35.18315708140244], [-79.16818104740462, 35.18289643787582], [-79.16881885125643, 35.18260201981644], [-79.16889161479445, 35.18224666093771], [-79.16855564487815, 35.18172316455256], [-79.16800407929362, 35.18110862101539], [-79.16746598843837, 35.18088615070409], [-79.16683716773939, 35.18078703007228], [-79.16585890239485, 35.18080758843548], [-79.16494711238134, 35.180776016661284], [-79.16359874113968, 35.180791435436255], [-79.16271030732356, 35.18068790931959], [-79.16195392585425, 35.180462500935704], [-79.16144098782694, 35.18008070029256], [-79.16129635906616, 35.17974001512765], [-79.16147871706887, 35.179366287733245], [-79.16190182356775, 35.178892701435046], [-79.16146973391604, 35.17881413723968], [-79.16101249143635, 35.17882515091649], [-79.16027317795742, 35.17885011524512], [-79.15979168096506, 35.17896686009184], [-79.15939282897885, 35.17931709362603], [-79.15927425136134, 35.179761307992294], [-79.15946110094046, 35.18017468215572], [-79.15958057687325, 35.18064018446964], [-79.1598806141782, 35.18084136287803], [-79.15993720804111, 35.1812003990192], [-79.16012315930494, 35.181613765863794], [-79.16061902934186, 35.181835499965615], [-79.16074120022051, 35.182193063286036], [-79.16060555461259, 35.18242287214617], [-79.15955632236059, 35.182005838334995], [-79.15871460093926, 35.18156750999806], [-79.15819357807439, 35.18144195822988], [-79.15796360936162, 35.1809926134703], [-79.15766536868726, 35.1807554582901], [-79.15732311056396, 35.18048232515088], [-79.15668081513573, 35.180062344447215], [-79.15631520081503, 35.179912560594374], [-79.15534771525391, 35.18038026710255], [-79.15473057265363, 35.18076280056613], [-79.15438022969278, 35.18084723669267], [-79.15421673631104, 35.180416978645496], [-79.15431375436174, 35.17997203362782], [-79.15425626218354, 35.179632816482986], [-79.15411792162978, 35.179022662600886], [-79.1539337669965, 35.17848519473731], [-79.15396610634673, 35.17803950489289], [-79.15421134641933, 35.177756817316485], [-79.15465152090862, 35.17753140080433], [-79.15494077843013, 35.177234026273396], [-79.15501354196817, 35.17689479770241], [-79.15493359190788, 35.176609169084955], [-79.15429219479492, 35.17609958751669], [-79.15367056061822, 35.175733920388275], [-79.15313696133938, 35.17529702678313], [-79.15247580129018, 35.17473236585555], [-79.15211647517648, 35.17429913829782], [-79.15181464124096, 35.17420441535475], [-79.15148406121637, 35.17439753255593], [-79.15136638191413, 35.174769814230956], [-79.15094417373054, 35.175155311210254], [-79.15021833498086, 35.17555475758042], [-79.1493613421997, 35.17596962167752], [-79.14874509791471, 35.17628315473214], [-79.14811358226987, 35.17634336468853], [-79.14766083136664, 35.17619430825161], [-79.14738415025907, 35.17592189405731], [-79.14734731933243, 35.17563699629534], [-79.14748386325563, 35.17537118872021], [-79.14790068154751, 35.17518101094389], [-79.14825551608479, 35.17488215925365], [-79.14832827962282, 35.174563480810995], [-79.14836151728834, 35.174045809249485], [-79.14856453654258, 35.17371023883097], [-79.14885469237937, 35.17341064744025], [-79.14890320140472, 35.173160987104666], [-79.1487118602492, 35.17298035003091], [-79.14836600886476, 35.172866533782376], [-79.1478270196942, 35.172698379162355], [-79.14737426879095, 35.17253169279838], [-79.14661698900632, 35.172393643921055], [-79.14588216710382, 35.172186570165564], [-79.14573753834304, 35.17186420961722], [-79.14596750705583, 35.1713311003022], [-79.14623430669525, 35.17105132665987], [-79.14645798720102, 35.170786238409754], [-79.14635378262805, 35.17055272505242], [-79.14596391379469, 35.170510868813736], [-79.14535575434724, 35.17051968065523], [-79.1448796472466, 35.17042201602507], [-79.14447091379226, 35.17023770125304], [-79.14393461956757, 35.169909458373475], [-79.14354834399535, 35.16968916039582], [-79.14323034038472, 35.1693256674278], [-79.14293299802564, 35.16903707488393], [-79.1424335347276, 35.1690113732082], [-79.14186759609852, 35.169039277884316], [-79.14132321703627, 35.169100961871216], [-79.1408201604771, 35.16923681334402], [-79.14053359790144, 35.16942920801449], [-79.14028656119825, 35.16976332744826], [-79.13988591258149, 35.17016720624971], [-79.13944483977691, 35.17044698293417], [-79.13891663038979, 35.1707407107009], [-79.13841267551534, 35.17089491735367], [-79.13793117852296, 35.17108363652599], [-79.13742273207208, 35.17143243539976], [-79.13706699921953, 35.1717849043206], [-79.13684062376791, 35.1722100679232], [-79.1368055894718, 35.17277988646702], [-79.13671036805168, 35.17313455243601], [-79.13667982533202, 35.17354428883428], [-79.13647411113192, 35.173953288878515], [-79.1360932254514, 35.174445261071064], [-79.13579767972288, 35.17503195237575], [-79.13556321943369, 35.175776508210745], [-79.13544194687033, 35.17631105691258], [-79.1357392892294, 35.17663560262382], [-79.13605998778588, 35.1768727698242], [-79.13618305697983, 35.17717895679643], [-79.13591805397097, 35.17738895486845], [-79.13526408044406, 35.17746678618391], [-79.13452386864982, 35.177527729520435], [-79.13375940234295, 35.177639336476076], [-79.13266974590316, 35.177785453245576], [-79.13236791196765, 35.17769000010934], [-79.13233467430211, 35.17794258354886], [-79.13225831750296, 35.179167308399876], [-79.13382857261982, 35.179204754732275], [-79.13372346973158, 35.18091845666169], [-79.13633666889342, 35.179201083523985], [-79.13703016829287, 35.17900210378623], [-79.13652531510311, 35.18588020561107], [-79.13535481028775, 35.18479140739184], [-79.13529282653315, 35.18473414045998], [-79.13498829765179, 35.184767913270825], [-79.13492272063604, 35.18484353494858], [-79.13472239632765, 35.184957334428084], [-79.13459034398086, 35.18505424740757], [-79.1342408993353, 35.18512546369005], [-79.13413938970817, 35.185191540597344], [-79.13415645769858, 35.18534571983877], [-79.13410525372738, 35.18551164574324], [-79.13428132352308, 35.18570547026459], [-79.13444302027425, 35.18586111689403], [-79.1347987531268, 35.185974914948595], [-79.1350448915147, 35.18603071264615], [-79.13511406179157, 35.186146713000056], [-79.13522365625626, 35.18624729545136], [-79.13518413038375, 35.186271523322475], [-79.13524611413837, 35.18641028280887], [-79.13506824771208, 35.18658134576491], [-79.13509789211646, 35.18671423133203], [-79.13508082412606, 35.18687648358068], [-79.1352488090842, 35.18711141838917], [-79.13504219656883, 35.18714225353234], [-79.1350610611898, 35.18725458145502], [-79.13509250222475, 35.18732506164096], [-79.13511316347629, 35.18756440014941], [-79.13520299500472, 35.187748675637245], [-79.13528114843444, 35.18793221654442], [-79.13552010030006, 35.18814585763819], [-79.13583810391067, 35.188328663489], [-79.13609592039725, 35.188472558568265], [-79.13630702448906, 35.188587821279555], [-79.13641751726901, 35.1886281998977], [-79.13639955096332, 35.18868913486529], [-79.13631600764191, 35.188730247588694], [-79.13623246432046, 35.18881687790202], [-79.136253125572, 35.18886019302407], [-79.13631600764191, 35.188858724715224], [-79.13643638189, 35.188899103198764], [-79.13649926395989, 35.18909365379271], [-79.13655855276865, 35.18923020600685], [-79.1364983656446, 35.189393187381405], [-79.1363564318297, 35.189704466215325], [-79.1362639053554, 35.18986524420261], [-79.13613814121561, 35.190017212144696], [-79.1360590894706, 35.190189001650005], [-79.13597734277973, 35.19038868813988], [-79.13591356239455, 35.19056341341594], [-79.1358659516845, 35.190821829942145], [-79.13585696853166, 35.19093855759217], [-79.13598812256315, 35.1910127052576], [-79.13602495348981, 35.191088321123964], [-79.13592524049325, 35.19117201238915], [-79.13582193423557, 35.19130342218422], [-79.13575006901283, 35.19150751071828], [-79.13556501606428, 35.1917101304824], [-79.13539972605197, 35.19190540847253], [-79.13530899620827, 35.19196927748774], [-79.13541769235765, 35.19205003134316], [-79.13542847214106, 35.19220786819242], [-79.13538355637684, 35.19231137963406], [-79.135459913176, 35.192415625066126], [-79.13546889632885, 35.19247655719333], [-79.135380861431, 35.192507390300534], [-79.13534942039605, 35.19256538587521], [-79.1353584035489, 35.19269165457823], [-79.13556321943369, 35.192807645423144], [-79.13569796672633, 35.19292216786705], [-79.13571503471674, 35.193008059594064], [-79.13565305096212, 35.1931130382482], [-79.1355748975324, 35.19326279777174], [-79.13558298236997, 35.19340962056603], [-79.135643169494, 35.19362471548059], [-79.13554794807386, 35.1937942950288], [-79.1352434191925, 35.194382314876314], [-79.13514280788068, 35.19443517038446], [-79.1348742116107, 35.194487291754655], [-79.13476192220016, 35.19451738999544], [-79.13476731209187, 35.194629707722406], [-79.1347080232831, 35.19467669025494], [-79.13450590234415, 35.19466641282826], [-79.1344681731022, 35.19471339533957], [-79.1344061893476, 35.19482718099654], [-79.13420227177807, 35.19484626760727], [-79.13402889692821, 35.194857279111424], [-79.13402260872121, 35.19497253276524], [-79.13404596491861, 35.19507163609478], [-79.13416274590556, 35.19510980919687], [-79.13429749319819, 35.195396106890826], [-79.134416969131, 35.19558256689763], [-79.13447985120091, 35.19563101706556], [-79.1346334631145, 35.19577049466044], [-79.13481222785607, 35.19572351276049], [-79.13511945168328, 35.19579398560021], [-79.13533235240565, 35.195961358349514], [-79.13552549019177, 35.19608835586344], [-79.1355982537298, 35.196249855305304], [-79.13573300102243, 35.19637171376255], [-79.13578240836306, 35.196464208614096], [-79.13569706841106, 35.196558171530036], [-79.13557849079355, 35.19658973717273], [-79.13552459187649, 35.196670486435394], [-79.13544823507732, 35.19680408958465], [-79.13539074289913, 35.196954576385195], [-79.1352784534886, 35.197061018100186], [-79.13518502869904, 35.1971204785837], [-79.13505387466755, 35.19724453797092], [-79.13506375613565, 35.197406769191346], [-79.13501345047975, 35.197629194274654], [-79.13501884037144, 35.19773049658596], [-79.13490655096092, 35.197994762890396], [-79.13499189091293, 35.19808872403589], [-79.13498111112952, 35.19818562135334], [-79.13488229644825, 35.19836913868326], [-79.13476102388488, 35.198434470752645], [-79.1347430575792, 35.198573943533894], [-79.13466490414946, 35.19867230840405], [-79.13462717490752, 35.19888078280967], [-79.134593937242, 35.198878580618036], [-79.12717385299413, 35.197794361021664], [-79.12445734757459, 35.197756923255106], [-79.12449956839295, 35.19766075950115], [-79.12254752928027, 35.19727610334687], [-79.11941690051468, 35.19710139250733], [-79.11078139568724, 35.2036072825182], [-79.11083349797372, 35.209035187505556], [-79.11083978618072, 35.2105522936332], [-79.11181805152526, 35.210734315105285], [-79.1109772284192, 35.21145652531146], [-79.10996842035502, 35.212441480501234], [-79.10929198894597, 35.21332073740867], [-79.10767142817318, 35.216246143006124], [-79.10623592034896, 35.21801997659067], [-79.10507619531701, 35.218932931682936], [-79.10275764356837, 35.22055259442642], [-79.10164103767006, 35.22151395575712], [-79.10152246005254, 35.22157046290083], [-79.10232106234022, 35.219297670516944], [-79.09595200697494, 35.21779100232017], [-79.09472760324252, 35.22127618500704], [-79.09728780180261, 35.221612292839], [-79.09657184452107, 35.223859336076075], [-79.09531779638426, 35.223900430996814], [-79.09500877592647, 35.22731930874586], [-79.09859664717175, 35.22736627236534], [-79.09814838784492, 35.227978998347126], [-79.09421107195408, 35.23327246463152], [-79.09144156593274, 35.23698150086374], [-79.09102384932557, 35.237908183139005], [-79.0895164762786, 35.2456330582497], [-79.08939789866108, 35.24633661701627], [-79.08937094920256, 35.24734609213238], [-79.08840615858728, 35.24687583675608], [-79.0752224834757, 35.251000198922355], [-79.07118186132718, 35.267398734754934], [-79.07062670248152, 35.26694766536599], [-79.06883276685886, 35.26551522836407], [-79.06522692930793, 35.2657161964753], [-79.06380489621296, 35.26710902380987], [-79.06326500872713, 35.267826331548015], [-79.0628958011453, 35.26721390662606], [-79.06007688778334, 35.267953216611616], [-79.05701542929464, 35.26617240690688], [-79.05747895998132, 35.26570226074645], [-79.05693458091905, 35.265384672170704], [-79.05769365733424, 35.263418235745284], [-79.05634887935373, 35.26217937829918], [-79.05420999066195, 35.26394780668429], [-79.05373568019186, 35.26331408149682], [-79.0535964413228, 35.26310650608125], [-79.046217679578, 35.25913753251843], [-79.04543255201959, 35.26027447883473], [-79.04533733059945, 35.26022973479732], [-79.04612066152733, 35.25909352137263], [-79.04147996476891, 35.25692007455584], [-79.04231000809155, 35.25572733141949], [-79.03774926139346, 35.25359120636683], [-79.03691831975553, 35.254783247378306], [-79.03613049725124, 35.255918054133126], [-79.03603437751582, 35.255873307690614], [-79.03682309833539, 35.25473923386802], [-79.03084840337989, 35.25194139268758], [-79.03157514044482, 35.249048085670886], [-79.03734591783082, 35.25118653121337], [-79.04134072589986, 35.24680687551995], [-79.03848049003483, 35.24500432538579], [-79.04003637210712, 35.24288405843488], [-79.03535704779149, 35.2412237553354], [-79.03297741060354, 35.2445142478472], [-79.03185541481352, 35.24072925283603], [-79.03150956342908, 35.24085251190138], [-79.02582682094095, 35.24263461161942], [-79.02223894969568, 35.24313717280153], [-79.02233956100751, 35.24348346132188], [-79.02217337267993, 35.24350840577684], [-79.0210064611257, 35.24367127820592], [-79.01991949963175, 35.24368301674674], [-79.01735301286467, 35.2437130967498], [-79.01760993103596, 35.24788677240023], [-79.01773300022991, 35.248995265718946], [-79.01781115365964, 35.24970686495785], [-79.01787493404481, 35.250280541446365], [-79.01792883296187, 35.25076985053753], [-79.0155330260988, 35.25098772784821], [-79.00952778842363, 35.25184896104798], [-79.00826116387285, 35.25202208688996], [-79.00472629322934, 35.25460279183428], [-79.00337253209597, 35.2558850444648], [-79.00178520898872, 35.25738513692668], [-79.00557969274936, 35.26189404965574], [-79.00724157602522, 35.26124563841158], [-79.00711221862429, 35.26363461210114], [-79.00766108926295, 35.264252198386146], [-79.00478288709223, 35.26625822112224], [-79.0041414899793, 35.266540600591014], [-79.00221370537929, 35.26904163292422], [-79.00154446049252, 35.26994154561112], [-79.00237630044576, 35.27123308987119], [-79.00044312595405, 35.271187618475224], [-78.99851084977765, 35.271139946823034], [-78.99642855494876, 35.27107834033865], [-78.99638813076096, 35.27288691120007], [-78.99252627335402, 35.273478758345334], [-78.99146356637274, 35.27362103570082], [-78.9866935122134, 35.27425394688768], [-78.98400215962181, 35.27456050000689]], [[-79.01400678843086, 35.190600854497625], [-79.01562465425779, 35.18900482131515], [-79.01544858446208, 35.190014275568785], [-79.01606932032348, 35.18909805870644], [-79.01677180287578, 35.189158993321655], [-79.01718233296067, 35.18874639901005], [-79.01763238891807, 35.18771049907649], [-79.01949279987173, 35.185962433879425], [-79.02021055378385, 35.1849375113044], [-79.02088339193176, 35.18408511241197], [-79.02220122045374, 35.182734177680764], [-79.02380022165968, 35.18216736576928], [-79.02329716510052, 35.1781746071796], [-79.02226410252364, 35.17817313867771], [-79.0219002848335, 35.17839047667174], [-79.02053933717788, 35.17899696408175], [-79.01991949963175, 35.17931195394147], [-79.01739343705246, 35.180453690171824], [-79.01709429806282, 35.18021506495416], [-79.01705477219032, 35.18018349294983], [-79.01702422947064, 35.18024590271401], [-79.01700895811081, 35.18025544773255], [-79.01684007483736, 35.18095296528399], [-79.01642505317604, 35.18256604347172], [-79.01635139132274, 35.18281053545996], [-79.01624359348864, 35.18306236878101], [-79.0162058642467, 35.18313946045798], [-79.01620406761612, 35.18314239728233], [-79.01607560853049, 35.18331640393526], [-79.0159094202029, 35.18353225977177], [-79.01564890877046, 35.18377307785159], [-79.01552943283765, 35.18386191604842], [-79.01535066809609, 35.18395148834692], [-79.01514585221129, 35.18405647870224], [-79.01495990094745, 35.18415412695295], [-79.01471915245126, 35.184245901517706], [-79.01426999480915, 35.18442504516954], [-79.01378849781679, 35.184615201318735], [-79.01324322043925, 35.18482811694231], [-79.01288389432555, 35.18496834727247], [-79.01236466809125, 35.185176122657104], [-79.0119523413758, 35.18534425146642], [-79.0119128155033, 35.18536847960679], [-79.01211493644225, 35.185604887142674], [-79.01070817470712, 35.18609532045862], [-79.01115643403395, 35.18739921260392], [-79.01288389432555, 35.18695430581121], [-79.01400678843086, 35.190600854497625]]]}}]}