{"type": "FeatureCollection", "features": [{"type": "Feature", "properties": {"FID": 0, "Shape_Leng": 8603.53124406, "Shape_Area": 1204257.25395, "_Area_ID": "W3", "_Parent_ID": "Deer Hunting", "_label": " ", "_ClosedSta": "_closed", "_OpenSta": "_open", "Status": "_highlit", "area_name": "W3", "area_type": null, "area_syskey": 0}, "geometry": {"type": "Polygon", "coordinates": [[[-77.14802627999805, 38.69378965784477], [-77.14765797073152, 38.69322173750518], [-77.14766695388435, 38.692822087155974], [-77.14810712837362, 38.69249956068474], [-77.14840357241744, 38.69293426993554], [-77.14906832572777, 38.692702892759925], [-77.14925697193746, 38.69240841163585], [-77.14902340996356, 38.69177737657364], [-77.14834069034752, 38.69147588007883], [-77.14841255557027, 38.69129357925624], [-77.14821492620774, 38.69095001105864], [-77.149625281204, 38.69146185695513], [-77.15008342199897, 38.69204381427886], [-77.1505146133354, 38.69294128135343], [-77.15083800683773, 38.69312357797713], [-77.15128716447985, 38.69311656657713], [-77.15166445689924, 38.69284312144055], [-77.15190700202598, 38.692127952295394], [-77.15149377699522, 38.69169323814476], [-77.1507032595451, 38.691637145803874], [-77.15039783234846, 38.69111127796911], [-77.15003850623475, 38.69084483679072], [-77.1477837348713, 38.69004550730164], [-77.14805322945656, 38.68983515595173], [-77.14870899961407, 38.689828144229416], [-77.14877188168397, 38.689603768752505], [-77.14917612356187, 38.689624803983335], [-77.14941866868863, 38.68947755723748], [-77.14960731489832, 38.68956169827221], [-77.14987680948359, 38.6879980612092], [-77.1496881632739, 38.68796300169053], [-77.14940968553577, 38.6876685010554], [-77.14758610550876, 38.68739503509453], [-77.14754118974454, 38.68611183470393], [-77.14925697193746, 38.68563501120805], [-77.149625281204, 38.68607677426099], [-77.15080207422636, 38.68559995053145], [-77.1507032595451, 38.685438671197936], [-77.15099072043606, 38.6852773915009], [-77.15082902368489, 38.68506702613235], [-77.15129614763269, 38.684835623512626], [-77.15196988409588, 38.685221294129754], [-77.15241005858516, 38.685207269780086], [-77.15294904775571, 38.68553684127032], [-77.15339820539782, 38.68505300175245], [-77.15321854234098, 38.68470239136181], [-77.15296701406139, 38.684604220144585], [-77.15257175533633, 38.68470239136181], [-77.15182615365039, 38.68428165662538], [-77.15227531129253, 38.68373469776967], [-77.15369464944163, 38.682710891751924], [-77.15420668915365, 38.68322279659176], [-77.15422465545933, 38.683496278498545], [-77.15399109348543, 38.68358743890189], [-77.15451211635029, 38.684597207909626], [-77.15417075654229, 38.684863672354865], [-77.15412584077806, 38.685109099255506], [-77.15469177940714, 38.68545269550224], [-77.15452109950313, 38.68673590771374], [-77.15382939673427, 38.688026108811776], [-77.15395516087406, 38.68859407039814], [-77.15375753151153, 38.68893063809955], [-77.15376651466437, 38.689323298416745], [-77.1538563461928, 38.68953365127162], [-77.15473669517135, 38.690206776251046], [-77.15513195389642, 38.69025585803307], [-77.1549163582282, 38.690683569279635], [-77.1549163582282, 38.691489903199795], [-77.15594942080509, 38.69188254947056], [-77.15721604535587, 38.691924618586036], [-77.15745859048262, 38.69263277831652], [-77.15726994427293, 38.69263277831652], [-77.15712621382744, 38.69285013286738], [-77.15679383717227, 38.69287817856775], [-77.15644349421142, 38.69310254377504], [-77.15668603933817, 38.69329185137133], [-77.15663214042111, 38.693446101634905], [-77.15589552188803, 38.694245393128014], [-77.1556350104556, 38.69417528019652], [-77.15556314523286, 38.693957929672074], [-77.15479059408841, 38.69384574849787], [-77.1551499202021, 38.69420332537735], [-77.15511398759074, 38.69435056239645], [-77.15540144848168, 38.69474319296567], [-77.1549163582282, 38.695353168325084], [-77.15503313921515, 38.695570514610004], [-77.15530263380042, 38.695661659629714], [-77.15439533536335, 38.69625760497317], [-77.15367668313594, 38.69650299278907], [-77.15405397555533, 38.69733730506592], [-77.15392821141553, 38.697786006803774], [-77.15356888530184, 38.697933236448165], [-77.15222141237547, 38.69756165628673], [-77.14940070238293, 38.697379370973415], [-77.149625281204, 38.696699302435626], [-77.1493917192301, 38.696362771283084], [-77.14882578060103, 38.69604727188952], [-77.14855628601575, 38.69572475995993], [-77.14819695990205, 38.69504467568997], [-77.14846645448732, 38.69436458495387], [-77.14802627999805, 38.69378965784477]]]}}, {"type": "Feature", "properties": {"FID": 1, "Shape_Leng": 1225.62796719, "Shape_Area": 99773.6041939, "_Area_ID": "T15A", "_Parent_ID": "Deer Hunting", "_label": " ", "_ClosedSta": "_closed", "_OpenSta": "_open", "Status": "_full", "area_name": "T15A", "area_type": null, "area_syskey": 1}, "geometry": {"type": "Polygon", "coordinates": [[[-77.15167344005208, 38.7195516707204], [-77.1493917192301, 38.719488591415235], [-77.14803526315089, 38.71882275090958], [-77.14785560009403, 38.718093823664304], [-77.14825085881911, 38.71781346505191], [-77.14913120779767, 38.71775038421258], [-77.15152970960659, 38.71794663552992], [-77.15179022103904, 38.7181148505159], [-77.15197886724873, 38.71880172426624], [-77.15198785040157, 38.71925029131547], [-77.15167344005208, 38.7195516707204]]]}}, {"type": "Feature", "properties": {"FID": 2, "Shape_Leng": 2576.17781909, "Shape_Area": 191128.194242, "_Area_ID": "T16", "_Parent_ID": "Deer Hunting", "_label": " ", "_ClosedSta": "_closed", "_OpenSta": "_open", "Status": "_base", "area_name": "T16", "area_type": null, "area_syskey": 2}, "geometry": {"type": "Polygon", "coordinates": [[[-77.14384911392631, 38.73033741310865], [-77.14276215243237, 38.72842427155091], [-77.14227706217888, 38.72783560230306], [-77.13878261572317, 38.725403786269275], [-77.13776751945197, 38.72341341991221], [-77.13965398154889, 38.72427545158428], [-77.1398695772171, 38.724226393150325], [-77.14110026915652, 38.72452074324888], [-77.14260943883406, 38.725817270916295], [-77.14320232692165, 38.726665257367685], [-77.14322927638017, 38.72727496041479], [-77.1439748780661, 38.7286905727125], [-77.14410962535874, 38.729594587672366], [-77.14384911392631, 38.73033741310865]]]}}, {"type": "Feature", "properties": {"FID": 3, "Shape_Leng": 2581.81747564, "Shape_Area": 302881.811812, "_Area_ID": "F2", "_Parent_ID": "Deer Hunting", "_label": " ", "_ClosedSta": "_closed", "_OpenSta": "_open", "Status": " ", "area_name": "F2", "area_type": null, "area_syskey": 3}, "geometry": {"type": "Polygon", "coordinates": [[[-77.16561529326356, 38.70394835990378], [-77.1667471705217, 38.703976401252554], [-77.16755565427752, 38.70440403045841], [-77.16802277822534, 38.7049648517702], [-77.16863363261861, 38.706261734206656], [-77.16922652070622, 38.70661924901252], [-77.15977624391597, 38.70725716314709], [-77.15962353031765, 38.70675945040921], [-77.15978522706881, 38.705953288624], [-77.15991997436144, 38.705869166870535], [-77.16101591900822, 38.70580607549048], [-77.16561529326356, 38.70394835990378]]]}}, {"type": "Feature", "properties": {"FID": 4, "Shape_Leng": 2114.88218306, "Shape_Area": 107851.21443, "_Area_ID": "H5", "_Parent_ID": "Deer Hunting", "_label": " ", "_ClosedSta": "_closed", "_OpenSta": "_open", "Status": " ", "area_name": "H5", "area_type": null, "area_syskey": 4}, "geometry": {"type": "Polygon", "coordinates": [[[-77.12593670715847, 38.68059310953158], [-77.12749079260021, 38.678419161936915], [-77.12886521498511, 38.67932381266773], [-77.1288831812908, 38.67956925856834], [-77.12811961329918, 38.68041078097994], [-77.12708655072231, 38.680614147411504], [-77.12631399957785, 38.6811541175462], [-77.12618823543806, 38.681743171228426], [-77.12575704410162, 38.68224807052554], [-77.12575704410162, 38.68294230124264], [-77.12611637021531, 38.683510303183546], [-77.12580195986583, 38.68428165662538], [-77.12535280222372, 38.68415543572205], [-77.12532585276519, 38.68331395734348], [-77.12511924024982, 38.68303346235168], [-77.12457126792643, 38.68275997867612], [-77.12528992015382, 38.68158889573267], [-77.12527195384813, 38.681175155261194], [-77.12593670715847, 38.68059310953158]]]}}, {"type": "Feature", "properties": {"FID": 5, "Shape_Leng": 10016.892085, "Shape_Area": 1886409.84575, "_Area_ID": "W1", "_Parent_ID": "Deer Hunting", "_label": " ", "_ClosedSta": "_closed", "_OpenSta": "_open", "Status": " ", "area_name": "W1", "area_type": null, "area_syskey": 5}, "geometry": {"type": "Polygon", "coordinates": [[[-77.16010862057114, 38.7040044425903], [-77.16024336786377, 38.703450624133666], [-77.1609260874798, 38.702623393640636], [-77.16115066630086, 38.70172604804817], [-77.16159084079014, 38.701284381629485], [-77.16180643645835, 38.70016267687678], [-77.16147405980318, 38.69908301943586], [-77.15993794066713, 38.696531037057284], [-77.15979421022165, 38.69566867078026], [-77.16012658687681, 38.69679745705687], [-77.16071049181159, 38.6975055685475], [-77.16090812117412, 38.69756866725105], [-77.16113269999518, 38.698003345696094], [-77.16135727881624, 38.69807345487532], [-77.16125846413496, 38.698276771106386], [-77.16147405980318, 38.69863432583495], [-77.16182440276404, 38.698655358410385], [-77.1620489815851, 38.69854318460331], [-77.1622196614891, 38.69878856457777], [-77.16216576257206, 38.69848008675953], [-77.16285746534092, 38.69904095453034], [-77.16318085884325, 38.69881660794983], [-77.16355815126263, 38.69881660794983], [-77.16380967954221, 38.6984380214994], [-77.1641240898917, 38.69844503237781], [-77.16428578664288, 38.69858524980159], [-77.16436663501845, 38.6981295421692], [-77.16424087087866, 38.697680842586536], [-77.16468104536794, 38.69780002868772], [-77.16515715246858, 38.69811552034985], [-77.16540868074819, 38.69808046578946], [-77.16548054597091, 38.69840296709707], [-77.16572309109766, 38.69846606500891], [-77.1654356302067, 38.69855720633882], [-77.16571410794482, 38.69878856457777], [-77.16521105138564, 38.6999663767362], [-77.16521105138564, 38.70024680534353], [-77.1654356302067, 38.700274848143785], [-77.16572309109766, 38.69958078560568], [-77.16622614765683, 38.69931437597387], [-77.1668549683558, 38.69870443439565], [-77.1666842884518, 38.6979262255196], [-77.16595665307156, 38.697680842586536], [-77.16575004055619, 38.69706387606409], [-77.16551647858229, 38.6968114791346], [-77.16433968555994, 38.69611738298614], [-77.1634683197342, 38.695177888581966], [-77.16296526317502, 38.69499559719353], [-77.16294729686935, 38.69470112550776], [-77.16336950505294, 38.69446975404705], [-77.16295628002219, 38.69438561878487], [-77.16255203814427, 38.69451182164102], [-77.16212982996068, 38.6949815747598], [-77.16197711636237, 38.69493950744208], [-77.16209389734931, 38.695332134778575], [-77.16147405980318, 38.69528305647938], [-77.16115066630086, 38.69556350344982], [-77.16098896954969, 38.69554246996519], [-77.16053981190757, 38.69503766447826], [-77.15987505859724, 38.69486238396203], [-77.15983014283303, 38.694441708970665], [-77.16026133416946, 38.69409114458797], [-77.16103388531391, 38.69292725851697], [-77.16097998639685, 38.69247852629914], [-77.16052184560189, 38.692092894800524], [-77.1603960814621, 38.69180542269459], [-77.16053082875473, 38.69136369501222], [-77.16049489614336, 38.69063448779106], [-77.16083625595137, 38.689961366835874], [-77.16260593706133, 38.68956169827221], [-77.1632976398302, 38.69029792810513], [-77.16413307304455, 38.690248846351984], [-77.16551647858229, 38.690389079843065], [-77.16597461937725, 38.690304939781406], [-77.1669807324956, 38.69053632471287], [-77.16758260373605, 38.690438161500026], [-77.16820244128218, 38.689933319991994], [-77.16848990217314, 38.68998941366881], [-77.17193943286463, 38.69397896362267], [-77.17245147257665, 38.69521294456496], [-77.17258621986929, 38.696488970650826], [-77.17016975175467, 38.69906198698618], [-77.16751972166615, 38.702420089766406], [-77.16702564825982, 38.70407454588655], [-77.16617224873978, 38.70389227717331], [-77.16535478183113, 38.703990421922775], [-77.16101591900822, 38.70580607549048], [-77.15991997436144, 38.705869166870535], [-77.15994692381997, 38.70562381119093], [-77.16052184560189, 38.70492279032439], [-77.160458963532, 38.70469145193019], [-77.15992895751428, 38.70427784505707], [-77.16010862057114, 38.7040044425903]]]}}, {"type": "Feature", "properties": {"FID": 6, "Shape_Leng": 2175.55357562, "Shape_Area": 200844.612092, "_Area_ID": "H6", "_Parent_ID": "Deer Hunting", "_label": " ", "_ClosedSta": "_closed", "_OpenSta": "_open", "Status": " ", "area_name": "H6", "area_type": null, "area_syskey": 6}, "geometry": {"type": "Polygon", "coordinates": [[[-77.13152422822647, 38.677255020916064], [-77.13022167106432, 38.67745138337967], [-77.12961081667103, 38.676651904266734], [-77.13031150259273, 38.67578929836646], [-77.1313176157111, 38.67508097192766], [-77.13217999838398, 38.67426042659705], [-77.13282678538863, 38.673916776612806], [-77.13279085277726, 38.67432354580258], [-77.13319509465516, 38.675179156208905], [-77.13383289850698, 38.6755578657465], [-77.13462341595711, 38.675719167348525], [-77.13510850621061, 38.67566306248471], [-77.13586309104937, 38.67719190429551], [-77.13531511872598, 38.677851119587395], [-77.13462341595711, 38.67737424104751], [-77.13352747131034, 38.6772409950052], [-77.13288966745853, 38.67738826693226], [-77.13238661089935, 38.677717874432865], [-77.13212609946692, 38.67806150616841], [-77.13183863857596, 38.6780264417812], [-77.13152422822647, 38.677255020916064]]]}}, {"type": "Feature", "properties": {"FID": 7, "Shape_Leng": 2130.19737399, "Shape_Area": 182019.785056, "_Area_ID": "H14", "_Parent_ID": "Deer Hunting", "_label": " ", "_ClosedSta": "_closed", "_OpenSta": "_open", "Status": " ", "area_name": "H14", "area_type": null, "area_syskey": 7}, "geometry": {"type": "Polygon", "coordinates": [[[-77.16285746534092, 38.737386862463026], [-77.16256102129712, 38.736791259952575], [-77.16283051588239, 38.73577522067738], [-77.16274068435396, 38.73412850564043], [-77.16201304897373, 38.73273402364692], [-77.16239034139312, 38.732061298981364], [-77.16283051588239, 38.73192114721194], [-77.16327069037168, 38.73204027623347], [-77.1641869719616, 38.7329933012537], [-77.16611834982272, 38.73318951070891], [-77.16530088291407, 38.73487128393161], [-77.16453731492246, 38.73516559017457], [-77.16432171925423, 38.73548091694636], [-77.16430375294856, 38.73728175649856], [-77.16311797677335, 38.73747094712321], [-77.16288441479945, 38.73749196827281], [-77.16285746534092, 38.737386862463026]]]}}, {"type": "Feature", "properties": {"FID": 8, "Shape_Leng": 4709.39888214, "Shape_Area": 1146461.86869, "_Area_ID": "T6C", "_Parent_ID": "Deer Hunting", "_label": " ", "_ClosedSta": "_closed", "_OpenSta": "_open", "Status": " ", "area_name": "T6C", "area_type": null, "area_syskey": 8}, "geometry": {"type": "Polygon", "coordinates": [[[-77.18582738715905, 38.69836090179159], [-77.18020393347969, 38.700457126077374], [-77.17932358450112, 38.70089178696731], [-77.17755390339116, 38.70115819072311], [-77.17399657486555, 38.7004150619801], [-77.17221791060275, 38.69875351034724], [-77.17087043767638, 38.69843101062032], [-77.17259520302213, 38.696376793446035], [-77.17471522709295, 38.6962856493376], [-77.17622439677048, 38.69566867078026], [-77.1776886506838, 38.69430849470762], [-77.1781108588674, 38.69371954446657], [-77.17889239316469, 38.69322874889488], [-77.17901815730448, 38.692822087155974], [-77.18021291663253, 38.69137771815516], [-77.18045546175928, 38.69156001876336], [-77.18056325959338, 38.69207887179778], [-77.18159632217026, 38.69262576686838], [-77.18211734503512, 38.693151623570316], [-77.18329413805749, 38.695886016106485], [-77.18381516092235, 38.696271627156754], [-77.18491110556913, 38.69674136871837], [-77.185773488242, 38.69734431605222], [-77.18561179149084, 38.69808046578946], [-77.18582738715905, 38.69836090179159]]]}}, {"type": "Feature", "properties": {"FID": 9, "Shape_Leng": 3804.54250266, "Shape_Area": 564805.729721, "_Area_ID": "W6", "_Parent_ID": "Deer Hunting", "_label": " ", "_ClosedSta": "_closed", "_OpenSta": "_open", "Status": " ", "area_name": "W6", "area_type": null, "area_syskey": 9}, "geometry": {"type": "Polygon", "coordinates": [[[-77.1661542824341, 38.69032597480609], [-77.1632976398302, 38.69029792810513], [-77.16260593706133, 38.68956169827221], [-77.16250712238006, 38.6895967570075], [-77.16292034741082, 38.6887343071328], [-77.16304611155061, 38.6886361414474], [-77.16327069037168, 38.68867821247194], [-77.16310001046767, 38.6882925604878], [-77.1635312018041, 38.68801909691218], [-77.16386357845927, 38.687535274179396], [-77.16362103333253, 38.68724077178369], [-77.16362103333253, 38.68672889568768], [-77.16324374091315, 38.68577525374256], [-77.1634683197342, 38.68562098693947], [-77.16408815728033, 38.68554385341319], [-77.16400730890476, 38.68493379441239], [-77.16495952310605, 38.683692623838375], [-77.16541766390102, 38.683363043854], [-77.16569614163913, 38.683327982064206], [-77.16583088893178, 38.68342615503234], [-77.16598360253009, 38.68403622688669], [-77.16610936666989, 38.68529141583678], [-77.16654954115917, 38.685726168886745], [-77.16692683357854, 38.68583836279342], [-77.16794192984975, 38.68575421737991], [-77.17009788653193, 38.68466031799948], [-77.17124773009576, 38.68466031799948], [-77.17125671324861, 38.68498989200892], [-77.17099620181618, 38.68506702613235], [-77.17080755560649, 38.68531245233551], [-77.17085247137071, 38.686890172113074], [-77.17052009471553, 38.6872547957348], [-77.16919957124769, 38.68796300169053], [-77.16913668917779, 38.689386404338165], [-77.169010925038, 38.68961078049679], [-77.16848990217314, 38.68998941366881], [-77.16820244128218, 38.689933319991994], [-77.16758260373605, 38.690438161500026], [-77.16688191781434, 38.69053632471287], [-77.1661542824341, 38.69032597480609]]]}}, {"type": "Feature", "properties": {"FID": 10, "Shape_Leng": 5569.44313694, "Shape_Area": 675988.864583, "_Area_ID": "W5", "_Parent_ID": "Deer Hunting", "_label": " ", "_ClosedSta": "_closed", "_OpenSta": "_open", "Status": " ", "area_name": "W5", "area_type": null, "area_syskey": 10}, "geometry": {"type": "Polygon", "coordinates": [[[-77.17685321746946, 38.686911208141744], [-77.17448166511905, 38.68733192741666], [-77.17324199002678, 38.68767551298938], [-77.17255028725792, 38.68708650814029], [-77.17223587690845, 38.68651853458652], [-77.1722718095198, 38.68597159282909], [-77.17204723069875, 38.68550178054566], [-77.17168790458506, 38.685088062697034], [-77.17125671324861, 38.68498989200892], [-77.17124773009576, 38.68466031799948], [-77.17188553394757, 38.68482861130034], [-77.17224486006128, 38.68473044025628], [-77.17248740518802, 38.68432373021035], [-77.17224486006128, 38.683748722407934], [-77.17257723671645, 38.68348225381082], [-77.17325097317963, 38.683748722407934], [-77.17294554598298, 38.68405025146587], [-77.17290063021878, 38.684358791512246], [-77.17303537751141, 38.68463928130905], [-77.17346656884784, 38.68498287981174], [-77.17405047378261, 38.68512312362441], [-77.1737719960445, 38.68475147691992], [-77.17392470964282, 38.684583183437645], [-77.17554167715446, 38.68444995081682], [-77.1762693125347, 38.68402921459608], [-77.17679033539956, 38.68488470897934], [-77.17785034743497, 38.685249342820796], [-77.17803899364466, 38.6850179407907], [-77.17849713443962, 38.68541062258107], [-77.17838035345267, 38.685207269780086], [-77.1784701849811, 38.68500391640118], [-77.1782366230072, 38.68487068456371], [-77.1784522186754, 38.68426763209157], [-77.1782186567015, 38.68402220230479], [-77.17858696596804, 38.683832870179835], [-77.17909002252722, 38.683888968639444], [-77.17944036548808, 38.68424659528567], [-77.18037461338369, 38.684344766993576], [-77.18057224274622, 38.68452708552226], [-77.18093156885993, 38.684618244612444], [-77.18132682758498, 38.684344766993576], [-77.18227904178629, 38.68450604879268], [-77.18283599726253, 38.68409933747134], [-77.18326718859896, 38.68440086505187], [-77.18388702614509, 38.684358791512246], [-77.1842283859531, 38.68459019567398], [-77.18478534142933, 38.68451306103657], [-77.18529738114135, 38.68415543572205], [-77.18591721868748, 38.68420452165536], [-77.18642027524666, 38.68405025146587], [-77.18657298884497, 38.68583836279342], [-77.18701316333426, 38.686238052156256], [-77.18718384323826, 38.686777979855634], [-77.18704011279279, 38.68726180770931], [-77.18662688776203, 38.6876685010554], [-77.18629451110687, 38.68713559206291], [-77.1845877120668, 38.6867078596054], [-77.18157835586459, 38.687991049306845], [-77.18119208029235, 38.688061168299534], [-77.18053631013485, 38.68797702550006], [-77.17801204418613, 38.687058460169375], [-77.17685321746946, 38.686911208141744]]]}}, {"type": "Feature", "properties": {"FID": 11, "Shape_Leng": 5938.4775782, "Shape_Area": 826523.543393, "_Area_ID": "F4", "_Parent_ID": "Deer Hunting", "_label": " ", "_ClosedSta": "_closed", "_OpenSta": "_open", "Status": " ", "area_name": "F4", "area_type": null, "area_syskey": 11}, "geometry": {"type": "Polygon", "coordinates": [[[-77.18246768799598, 38.72262847145761], [-77.17378097919733, 38.72078521038681], [-77.17218197799139, 38.72011938196148], [-77.16904685764936, 38.71839520794601], [-77.17005297076773, 38.715899988155925], [-77.17149925837536, 38.71454720618124], [-77.17217299483853, 38.71344673771111], [-77.17520031734644, 38.71622240909699], [-77.17484099123276, 38.71660090138938], [-77.17564947498856, 38.718058778897884], [-77.17610761578354, 38.71802373411431], [-77.1766735544126, 38.71758216836881], [-77.17883849424764, 38.719593723559576], [-77.18132682758498, 38.7211636785159], [-77.18194666513112, 38.72133889456358], [-77.18589026922896, 38.721843514380545], [-77.18763300088038, 38.72172436835623], [-77.18871097922148, 38.721135643908404], [-77.18879182759706, 38.7212407736298], [-77.18853131616463, 38.72123376498653], [-77.18860318138738, 38.72133889456358], [-77.18880081074991, 38.72157017908867], [-77.18901640641813, 38.72151411018163], [-77.1865550225393, 38.7225794118929], [-77.18607891543866, 38.72241120741537], [-77.18405770604909, 38.72316111599215], [-77.18337498643307, 38.72282470937962], [-77.18246768799598, 38.72262847145761]]]}}, {"type": "Feature", "properties": {"FID": 12, "Shape_Leng": 6042.68919836, "Shape_Area": 657888.223492, "_Area_ID": "F1", "_Parent_ID": "Deer Hunting", "_label": " ", "_ClosedSta": "_closed", "_OpenSta": "_open", "Status": " ", "area_name": "F1", "area_type": null, "area_syskey": 12}, "geometry": {"type": "Polygon", "coordinates": [[[-77.19521478187941, 38.68940042786868], [-77.19486443891856, 38.68896569714406], [-77.19365171328484, 38.68914099210892], [-77.1927983137648, 38.6889236262886], [-77.19225932459425, 38.689063862377296], [-77.19188203217486, 38.689379392571865], [-77.19137897561569, 38.68948456899414], [-77.19091185166789, 38.689133980318594], [-77.19057049185986, 38.688369691050944], [-77.1899237048552, 38.68808921587736], [-77.18852233301179, 38.688187382313174], [-77.18787554600713, 38.68840475037031], [-77.18669875298477, 38.6879980612092], [-77.18662688776203, 38.6876685010554], [-77.18704011279279, 38.68726180770931], [-77.18717486008542, 38.686679811486066], [-77.18701316333426, 38.686238052156256], [-77.18657298884497, 38.68583836279342], [-77.18642027524666, 38.68405025146587], [-77.18668976983193, 38.68401519001281], [-77.18719282639111, 38.684765501358896], [-77.1878485965486, 38.68523531847665], [-77.18973505864551, 38.68539659826855], [-77.19057049185986, 38.685929520213044], [-77.191019649502, 38.685726168886745], [-77.1914059250742, 38.685845374906734], [-77.19099270004347, 38.68578927798089], [-77.19064235708261, 38.68602067751654], [-77.19185508271634, 38.68715662801944], [-77.19269051593069, 38.687738620364186], [-77.19311272411429, 38.68864315328654], [-77.19357086490925, 38.68858004670957], [-77.19428951713664, 38.68817335854486], [-77.1944512138878, 38.68788587068897], [-77.1947476579316, 38.6878297753629], [-77.19567292267438, 38.688145311000035], [-77.19610411401081, 38.688488892666754], [-77.1983229527629, 38.68930927487109], [-77.19864634626522, 38.689316286644285], [-77.19935601533977, 38.689063862377296], [-77.20008365072002, 38.689253180661034], [-77.20050585890361, 38.689947343415305], [-77.20043399368087, 38.69039609151041], [-77.2014760394106, 38.69072563910018], [-77.20193418020557, 38.69132162556688], [-77.20065857250194, 38.691854503379815], [-77.20074840403035, 38.692801052865214], [-77.20114366275543, 38.69362839697216], [-77.20097298285141, 38.69392287307404], [-77.20014653278992, 38.69426642699408], [-77.19715514289338, 38.694238381837955], [-77.19716412604622, 38.69334794241475], [-77.1974785363957, 38.69219105574285], [-77.19728989018601, 38.69184749185544], [-77.19643649066599, 38.69109024317531], [-77.19521478187941, 38.68940042786868]]]}}, {"type": "Feature", "properties": {"FID": 13, "Shape_Leng": 4433.52277496, "Shape_Area": 907641.90824, "_Area_ID": "T7", "_Parent_ID": "Deer Hunting", "_label": " ", "_ClosedSta": "_closed", "_OpenSta": "_open", "Status": " ", "area_name": "T7", "area_type": null, "area_syskey": 13}, "geometry": {"type": "Polygon", "coordinates": [[[-77.18319532337622, 38.69567568193012], [-77.18211734503512, 38.693151623570316], [-77.18159632217026, 38.69262576686838], [-77.18056325959338, 38.69207887179778], [-77.18045546175928, 38.69156001876336], [-77.18021291663253, 38.69137771815516], [-77.18033868077232, 38.68827853674012], [-77.18053631013485, 38.68797702550006], [-77.18119208029235, 38.688061168299534], [-77.18157835586459, 38.687991049306845], [-77.1845877120668, 38.6867078596054], [-77.18629451110687, 38.68713559206291], [-77.18660892145635, 38.68747216662523], [-77.18663587091488, 38.68795598978471], [-77.18743537151786, 38.68829957236061], [-77.18722875900248, 38.688958685336544], [-77.18624959534264, 38.68970193311024], [-77.18591721868748, 38.69049425478101], [-77.18624959534264, 38.69085184841341], [-77.1863663763296, 38.69135668343971], [-77.18799232699409, 38.69331989689854], [-77.18756113565765, 38.69388080513371], [-77.18776774817303, 38.694238381837955], [-77.18794741122987, 38.69526903410199], [-77.18824385527367, 38.69567568193012], [-77.18832470364926, 38.696734357672966], [-77.18768689979744, 38.69726719516511], [-77.18725570846101, 38.69791921459032], [-77.18587230292327, 38.69834688001758], [-77.18561179149084, 38.69808046578946], [-77.185773488242, 38.69734431605222], [-77.18491110556913, 38.69674136871837], [-77.18381516092235, 38.696271627156754], [-77.18329413805749, 38.695886016106485], [-77.18319532337622, 38.69567568193012]]]}}, {"type": "Feature", "properties": {"FID": 14, "Shape_Leng": 6149.37246026, "Shape_Area": 1897126.15288, "_Area_ID": "T6B", "_Parent_ID": "Deer Hunting", "_label": " ", "_ClosedSta": "_closed", "_OpenSta": "_open", "Status": " ", "area_name": "T6B", "area_type": null, "area_syskey": 14}, "geometry": {"type": "Polygon", "coordinates": [[[-77.17052907786837, 38.70690666157984], [-77.16886719459252, 38.706458017066474], [-77.16845396956177, 38.70596730890663], [-77.16781616570995, 38.704656400593024], [-77.16702564825982, 38.70407454588655], [-77.16751972166615, 38.702420089766406], [-77.17016975175467, 38.69906198698618], [-77.17087043767638, 38.69843101062032], [-77.17221791060275, 38.69875351034724], [-77.17399657486555, 38.7004150619801], [-77.17752695393264, 38.70115819072311], [-77.17932358450112, 38.70089178696731], [-77.18020393347969, 38.700457126077374], [-77.18356363264276, 38.699209214003915], [-77.18413855442468, 38.700015451821855], [-77.18527043168282, 38.7012002543833], [-77.18668078667909, 38.70313515600668], [-77.18540517897546, 38.70373103907816], [-77.18686044973593, 38.705672882394204], [-77.18444398162131, 38.70651409778459], [-77.18298871086084, 38.70671739001906], [-77.1736462319047, 38.70685759122328], [-77.17209214646296, 38.7071800529497], [-77.17052907786837, 38.70690666157984]]]}}, {"type": "Feature", "properties": {"FID": 15, "Shape_Leng": 2101.13010883, "Shape_Area": 169130.2205, "_Area_ID": "T1", "_Parent_ID": "Deer Hunting", "_label": " ", "_ClosedSta": "_closed", "_OpenSta": "_open", "Status": " ", "area_name": "T1", "area_type": null, "area_syskey": 15}, "geometry": {"type": "Polygon", "coordinates": [[[-77.14815204413783, 38.68441488955958], [-77.14817001044352, 38.68339109327349], [-77.14786458324689, 38.68186939638665], [-77.14838560611175, 38.682009646301374], [-77.14887069636524, 38.681483707703975], [-77.14999359047054, 38.68083153847515], [-77.15227531129253, 38.68276699109112], [-77.15143089492534, 38.68341914268194], [-77.15127818132702, 38.682816077976845], [-77.15097275413036, 38.68285114001744], [-77.15080207422636, 38.68298437561509], [-77.15084698999057, 38.683152672857545], [-77.15044274811267, 38.683503290841394], [-77.1506852932394, 38.68348225381082], [-77.15109851827016, 38.68384689479886], [-77.15073020900363, 38.684302693420946], [-77.1502181692916, 38.68452708552226], [-77.15011037145749, 38.68442891406453], [-77.15016427037455, 38.684548122245694], [-77.14800831369236, 38.685256354991864], [-77.14815204413783, 38.68441488955958]]]}}, {"type": "Feature", "properties": {"FID": 16, "Shape_Leng": 6089.20971265, "Shape_Area": 652722.614418, "_Area_ID": "T4", "_Parent_ID": "Deer Hunting", "_label": " ", "_ClosedSta": "_closed", "_OpenSta": "_open", "Status": " ", "area_name": "T4", "area_type": null, "area_syskey": 16}, "geometry": {"type": "Polygon", "coordinates": [[[-77.15130513078553, 38.708546994118535], [-77.15090088890763, 38.707453443274225], [-77.15244599119653, 38.707011812230405], [-77.15267057001759, 38.706738420217214], [-77.1525448058778, 38.70639492620602], [-77.15163750744071, 38.70528732203271], [-77.15258073848916, 38.70484567760947], [-77.15273345208749, 38.704593308142876], [-77.15264362055906, 38.703997432256884], [-77.15338023909214, 38.70359083174335], [-77.15354193584331, 38.70302298922614], [-77.15351498638478, 38.702244827341964], [-77.15436838590482, 38.70237802682373], [-77.15439533536335, 38.701501709890664], [-77.15339820539782, 38.701747079714366], [-77.15302989613129, 38.700646414209025], [-77.15100868674175, 38.69937747308162], [-77.15062241116951, 38.69939149465355], [-77.15011935461034, 38.70019773041662], [-77.14912222464483, 38.70045011539623], [-77.1487359490726, 38.70094787205101], [-77.14834069034752, 38.70109509518641], [-77.1463015146523, 38.698353890904926], [-77.14719982993654, 38.69809448761568], [-77.1494995170642, 38.698599271528856], [-77.1506852932394, 38.69855019547142], [-77.1509997035889, 38.69833285824085], [-77.15269751947612, 38.69848008675953], [-77.15392821141553, 38.69916714917262], [-77.15523975173053, 38.70060435022307], [-77.1556350104556, 38.701375519367815], [-77.1556799262198, 38.70211863813042], [-77.15529365064758, 38.70413763879444], [-77.1555092463158, 38.7051190768598], [-77.15603026918066, 38.70580607549048], [-77.15787181551336, 38.707362313282204], [-77.15850063621234, 38.708364736806026], [-77.15424262176501, 38.708399786325295], [-77.15143987807818, 38.70891150734972], [-77.15130513078553, 38.708546994118535]]]}}, {"type": "Feature", "properties": {"FID": 17, "Shape_Leng": 3068.0293447, "Shape_Area": 164375.554305, "_Area_ID": "H1", "_Parent_ID": "Deer Hunting", "_label": " ", "_ClosedSta": "_closed", "_OpenSta": "_open", "Status": " ", "area_name": "H1", "area_type": null, "area_syskey": 17}, "geometry": {"type": "Polygon", "coordinates": [[[-77.13721954712858, 38.712283166634634], [-77.13703988407173, 38.71150510552901], [-77.13571037745105, 38.712044842511], [-77.13431798876047, 38.71170137399396], [-77.13482104531964, 38.71132285575764], [-77.13469528117986, 38.71063591013557], [-77.13522528719756, 38.71082517132288], [-77.13624038346876, 38.71087423895632], [-77.1366086927353, 38.71075507464527], [-77.13705785037742, 38.7103274834234], [-77.13759683954797, 38.70953538145217], [-77.13756989008944, 38.70856802377853], [-77.13728242919848, 38.708021250607985], [-77.13690513677909, 38.70771982258492], [-77.13663564219382, 38.707285203198246], [-77.1366086927353, 38.706920681675506], [-77.13759683954797, 38.70651409778459], [-77.13824362655262, 38.70637389590683], [-77.13810887925999, 38.706962741946036], [-77.13846820537368, 38.70750251322184], [-77.13833345808105, 38.70852596445235], [-77.13886346409875, 38.7093180776074], [-77.13841430645664, 38.7097176357804], [-77.13813582871852, 38.71074806497371], [-77.13860295266632, 38.71142099030766], [-77.13941143642214, 38.711617259003525], [-77.13922279021244, 38.711834555859696], [-77.13871075050042, 38.71177847931492], [-77.1392946554352, 38.71242335692447], [-77.13732734496269, 38.71277383144616], [-77.13721954712858, 38.712283166634634]]]}}, {"type": "Feature", "properties": {"FID": 18, "Shape_Leng": 3721.94317579, "Shape_Area": 518412.299323, "_Area_ID": "W7", "_Parent_ID": "Deer Hunting", "_label": " ", "_ClosedSta": "_closed", "_OpenSta": "_open", "Status": " ", "area_name": "W7", "area_type": null, "area_syskey": 18}, "geometry": {"type": "Polygon", "coordinates": [[[-77.16862464946577, 38.68990527313707], [-77.16913668917779, 38.689386404338165], [-77.16919957124769, 38.68796300169053], [-77.17052009471553, 38.6872547957348], [-77.17085247137071, 38.686890172113074], [-77.17084348821786, 38.685221294129754], [-77.17114891541449, 38.684996904205384], [-77.17156214044525, 38.68502495298441], [-77.171975365476, 38.685375561794544], [-77.1722718095198, 38.68597159282909], [-77.1722718095198, 38.68660969113963], [-77.17257723671645, 38.68712858007603], [-77.17324199002678, 38.68767551298938], [-77.17343063623647, 38.68850291637321], [-77.17480505862137, 38.69053632471287], [-77.17494878906686, 38.690978057503955], [-77.17476014285717, 38.69145484539223], [-77.17391572648998, 38.69250657214522], [-77.17259520302213, 38.696376793446035], [-77.17245147257665, 38.69521294456496], [-77.17193943286463, 38.69397896362267], [-77.16866956522999, 38.69032597480609], [-77.16848990217314, 38.68998941366881], [-77.16862464946577, 38.68990527313707]]]}}, {"type": "Feature", "properties": {"FID": 19, "Shape_Leng": 2765.02864269, "Shape_Area": 200660.34327, "_Area_ID": "H4", "_Parent_ID": "Deer Hunting", "_label": " ", "_ClosedSta": "_closed", "_OpenSta": "_open", "Status": " ", "area_name": "H4", "area_type": null, "area_syskey": 19}, "geometry": {"type": "Polygon", "coordinates": [[[-77.12359210426659, 38.689063862377296], [-77.12333159283416, 38.68874833079117], [-77.12205598513054, 38.68891661447693], [-77.12151699596, 38.6877806919165], [-77.12202005251916, 38.68715662801944], [-77.12553246528056, 38.68817335854486], [-77.12737401161326, 38.688243477358874], [-77.12724824747346, 38.689063862377296], [-77.12605348814543, 38.689014779777516], [-77.12571212833741, 38.68918306283658], [-77.12515517286117, 38.689758026968455], [-77.12497550980433, 38.6905643713204], [-77.12540670114078, 38.69168622660456], [-77.12443652063378, 38.69244346897607], [-77.1230441319432, 38.69272392707954], [-77.1230441319432, 38.691973699189504], [-77.1228105699693, 38.690985069113566], [-77.12403227875588, 38.69076770889601], [-77.12363702003081, 38.68948456899414], [-77.12377176732345, 38.68909190956205], [-77.12359210426659, 38.689063862377296]]]}}, {"type": "Feature", "properties": {"FID": 20, "Shape_Leng": 3735.39878446, "Shape_Area": 737798.485241, "_Area_ID": "T9", "_Parent_ID": "Deer Hunting", "_label": " ", "_ClosedSta": "_closed", "_OpenSta": "_open", "Status": " ", "area_name": "T9", "area_type": null, "area_syskey": 20}, "geometry": {"type": "Polygon", "coordinates": [[[-77.18743537151786, 38.68829957236061], [-77.18804622591114, 38.68839072664462], [-77.18852233301179, 38.688187382313174], [-77.1899237048552, 38.68808921587736], [-77.19057049185986, 38.688369691050944], [-77.19091185166789, 38.689133980318594], [-77.19137897561569, 38.68948456899414], [-77.19188203217486, 38.689379392571865], [-77.19225932459425, 38.689063862377296], [-77.1927983137648, 38.6889236262886], [-77.19365171328484, 38.68914099210892], [-77.19403798885705, 38.68909892135652], [-77.19447816334633, 38.689687909638785], [-77.19463087694466, 38.69050827809438], [-77.1949812199055, 38.69102012715135], [-77.19537647863058, 38.694210336670864], [-77.19342713446378, 38.69418229149276], [-77.19192694793908, 38.69397896362267], [-77.18956437874152, 38.69503766447826], [-77.18893555804254, 38.69555649228897], [-77.18824385527367, 38.69567568193012], [-77.18794741122987, 38.69526903410199], [-77.18776774817303, 38.694238381837955], [-77.18756113565765, 38.69388080513371], [-77.18799232699409, 38.69331989689854], [-77.1863663763296, 38.69135668343971], [-77.18624959534264, 38.69085184841341], [-77.18591721868748, 38.69049425478101], [-77.18624959534264, 38.68970193311024], [-77.18722875900248, 38.688958685336544], [-77.18743537151786, 38.68829957236061]]]}}, {"type": "Feature", "properties": {"FID": 21, "Shape_Leng": 1880.56202888, "Shape_Area": 135347.059762, "_Area_ID": "T9A", "_Parent_ID": "Deer Hunting", "_label": " ", "_ClosedSta": "_closed", "_OpenSta": "_open", "Status": " ", "area_name": "T9A", "area_type": null, "area_syskey": 21}, "geometry": {"type": "Polygon", "coordinates": [[[-77.19410087092695, 38.689084897766904], [-77.19473867477876, 38.688951673528344], [-77.19501715251688, 38.68903581518155], [-77.19524173133794, 38.68953365127162], [-77.19643649066599, 38.69109024317531], [-77.19728989018601, 38.69184749185544], [-77.1974785363957, 38.69219105574285], [-77.19706531136495, 38.694161257601955], [-77.19537647863058, 38.694210336670864], [-77.1949812199055, 38.69102012715135], [-77.19463087694466, 38.69050827809438], [-77.19447816334633, 38.689687909638785], [-77.19410087092695, 38.689084897766904]]]}}, {"type": "Feature", "properties": {"FID": 22, "Shape_Leng": 3007.6041114, "Shape_Area": 179507.870327, "_Area_ID": "H2", "_Parent_ID": "Deer Hunting", "_label": " ", "_ClosedSta": "_closed", "_OpenSta": "_open", "Status": " ", "area_name": "H2", "area_type": null, "area_syskey": 22}, "geometry": {"type": "Polygon", "coordinates": [[[-77.12944013676703, 38.70272855059015], [-77.12926945686301, 38.702693498290834], [-77.12918860848744, 38.702321942861644], [-77.12830825950887, 38.70202750133912], [-77.12723926432062, 38.702427100254454], [-77.12725723062631, 38.70192935389554], [-77.1275087589059, 38.70129840282756], [-77.12723926432062, 38.70081466990545], [-77.12736502846042, 38.70075157406567], [-77.12715841594505, 38.70023979464173], [-77.12715841594505, 38.69927932200105], [-77.12692485397113, 38.699160138365016], [-77.12708655072231, 38.699097041065514], [-77.12704163495809, 38.699012911246264], [-77.12670925830292, 38.69883062963173], [-77.12693383712399, 38.69874649949908], [-77.12694282027682, 38.698508130252534], [-77.12652061209323, 38.698823618791096], [-77.1264936626347, 38.69867639097962], [-77.12565822942035, 38.69842399974053], [-77.1251372065555, 38.6975055685475], [-77.1277423208798, 38.69757567821465], [-77.12811063014634, 38.698108509439145], [-77.1286316530112, 38.7000084410974], [-77.12989827756199, 38.702125648648014], [-77.13151524507363, 38.70279164468564], [-77.131551177685, 38.703576810994754], [-77.13021268791147, 38.70356279024341], [-77.12996115963189, 38.703079072638396], [-77.12931437262723, 38.70288278050306], [-77.12956590090681, 38.7027495819615], [-77.12944013676703, 38.70272855059015]]]}}, {"type": "Feature", "properties": {"FID": 23, "Shape_Leng": 7953.65356507, "Shape_Area": 2096750.7446, "_Area_ID": "T8", "_Parent_ID": "Deer Hunting", "_label": " ", "_ClosedSta": "_closed", "_OpenSta": "_open", "Status": " ", "area_name": "T8", "area_type": null, "area_syskey": 23}, "geometry": {"type": "Polygon", "coordinates": [[[-77.18819893950946, 38.70519618927987], [-77.18810910798103, 38.70506299504753], [-77.18686044973593, 38.705672882394204], [-77.18629451110687, 38.70504897458757], [-77.18540517897546, 38.70373103907816], [-77.18668078667909, 38.70313515600668], [-77.18527043168282, 38.7012002543833], [-77.18413855442468, 38.700015451821855], [-77.18356363264276, 38.699209214003915], [-77.18725570846101, 38.69791921459032], [-77.18768689979744, 38.69726719516511], [-77.18832470364926, 38.696734357672966], [-77.18824385527367, 38.69567568193012], [-77.18893555804254, 38.69555649228897], [-77.18956437874152, 38.69503766447826], [-77.19163948704812, 38.69406309936314], [-77.19215152676013, 38.693957929672074], [-77.19342713446378, 38.69418229149276], [-77.19644547381883, 38.694231370547215], [-77.19694853037801, 38.69414723500464], [-77.19715514289338, 38.694238381837955], [-77.20014653278992, 38.69426642699408], [-77.19977822352337, 38.694722159239795], [-77.19939194795114, 38.69562660386664], [-77.19978720667622, 38.69596313848285], [-77.1998051729819, 38.696306682603705], [-77.2003531453053, 38.69658712556072], [-77.20040704422235, 38.697295239133666], [-77.200712471419, 38.69783508338559], [-77.2009280670872, 38.69808747670291], [-77.20131434265943, 38.698213673027574], [-77.2011167132969, 38.69911807350486], [-77.20068552196047, 38.69958779637207], [-77.19818820547026, 38.700835701839644], [-77.1970114124479, 38.699454591693254], [-77.19517884926805, 38.70014865545605], [-77.19521478187941, 38.70195739603604], [-77.19610411401081, 38.70187326958159], [-77.19683174939105, 38.701501709890664], [-77.19651733904156, 38.70305804136397], [-77.19429850028948, 38.70617761281608], [-77.19341815131092, 38.706198643173], [-77.19356188175641, 38.705224230139265], [-77.19338221869955, 38.70500691319125], [-77.19133405985148, 38.704985882483825], [-77.19023811520469, 38.705105056410844], [-77.18995963746659, 38.705182168846044], [-77.18977099125689, 38.70549061775515], [-77.18989675539669, 38.70725716314709], [-77.1890523390295, 38.707418393291036], [-77.18836961941346, 38.707088922609216], [-77.1892230189335, 38.70671037995164], [-77.18819893950946, 38.70519618927987]]]}}, {"type": "Feature", "properties": {"FID": 24, "Shape_Leng": 3889.12245672, "Shape_Area": 755619.017296, "_Area_ID": "T10", "_Parent_ID": "Deer Hunting", "_label": " ", "_ClosedSta": "_closed", "_OpenSta": "_open", "Status": " ", "area_name": "T10", "area_type": null, "area_syskey": 24}, "geometry": {"type": "Polygon", "coordinates": [[[-77.17259520302213, 38.696376793446035], [-77.17391572648998, 38.69250657214522], [-77.17494878906686, 38.69110426637189], [-77.17480505862137, 38.69053632471287], [-77.17336775416659, 38.68837670291617], [-77.17324199002678, 38.68767551298938], [-77.17672745332966, 38.68690419613288], [-77.17801204418613, 38.687058460169375], [-77.18045546175928, 38.68792093024543], [-77.1802488492439, 38.689379392571865], [-77.18021291663253, 38.69137771815516], [-77.17901815730448, 38.692822087155974], [-77.17889239316469, 38.69322874889488], [-77.1781108588674, 38.69371954446657], [-77.1776886506838, 38.69430849470762], [-77.17622439677048, 38.69566867078026], [-77.17471522709295, 38.6962856493376], [-77.17259520302213, 38.696376793446035]]]}}, {"type": "Feature", "properties": {"FID": 25, "Shape_Leng": 6711.63517263, "Shape_Area": 1008005.13542, "_Area_ID": "W4", "_Parent_ID": "Deer Hunting", "_label": " ", "_ClosedSta": "_closed", "_OpenSta": "_open", "Status": " ", "area_name": "W4", "area_type": null, "area_syskey": 25}, "geometry": {"type": "Polygon", "coordinates": [[[-77.12671824145576, 38.73810858590797], [-77.12653857839891, 38.737527003508355], [-77.12804774807645, 38.737463940072], [-77.12920657479313, 38.73767415131], [-77.12987132810346, 38.73748496122361], [-77.13110202004287, 38.73594339369353], [-77.13188355434016, 38.73545288795633], [-77.13281780223578, 38.73463303513247], [-77.13305136420968, 38.731129284549155], [-77.1350635904464, 38.72793371418122], [-77.13412934255078, 38.72751323375486], [-77.13394967949394, 38.72717684763203], [-77.13383289850698, 38.725852311878086], [-77.13569241114537, 38.7243315183247], [-77.13645597913698, 38.72589436100958], [-77.13690513677909, 38.726511078761455], [-77.13751599117238, 38.72705771050042], [-77.13984262775858, 38.728543406403794], [-77.14003127396828, 38.7288307308199], [-77.14038161692912, 38.728921833442236], [-77.14180993823108, 38.73127644553107], [-77.13803701403725, 38.73180201799175], [-77.1312547336412, 38.73766714427871], [-77.13216203207828, 38.73984629787384], [-77.12757164097579, 38.74077819856659], [-77.12671824145576, 38.73810858590797]]]}}, {"type": "Feature", "properties": {"FID": 26, "Shape_Leng": 3778.29824288, "Shape_Area": 609927.876921, "_Area_ID": "F3", "_Parent_ID": "Deer Hunting", "_label": " ", "_ClosedSta": "_closed", "_OpenSta": "_open", "Status": " ", "area_name": "F3", "area_type": null, "area_syskey": 26}, "geometry": {"type": "Polygon", "coordinates": [[[-77.16492359049468, 38.715542519760255], [-77.16457324753384, 38.71423178701421], [-77.16476189374353, 38.708546994118535], [-77.17096026920481, 38.70828061788969], [-77.17131061216567, 38.708848418654256], [-77.17091535344059, 38.70933910704059], [-77.17018771806036, 38.710776103655775], [-77.16954991420855, 38.71127378843211], [-77.16956788051422, 38.711498095931006], [-77.16891211035673, 38.711624268589844], [-77.16845396956177, 38.71221307138664], [-77.16919058809485, 38.71404253484593], [-77.170322465353, 38.714519168978306], [-77.16931635223465, 38.71550046453734], [-77.16884024513399, 38.71640464637684], [-77.16780718255711, 38.71612428113846], [-77.1669986988013, 38.715493455331135], [-77.16678310313307, 38.715542519760255], [-77.1656691921806, 38.71649576484253], [-77.16492359049468, 38.715542519760255]]]}}, {"type": "Feature", "properties": {"FID": 27, "Shape_Leng": 2878.98319565, "Shape_Area": 332735.436844, "_Area_ID": "H13", "_Parent_ID": "Deer Hunting", "_label": " ", "_ClosedSta": "_closed", "_OpenSta": "_open", "Status": " ", "area_name": "H13", "area_type": null, "area_syskey": 27}, "geometry": {"type": "Polygon", "coordinates": [[[-77.16567817533345, 38.72336436088642], [-77.16339645451147, 38.723560596787536], [-77.16283949903524, 38.72379187412201], [-77.16019845209956, 38.72362367249845], [-77.1601445531825, 38.72276163296347], [-77.1616447397072, 38.7225794118929], [-77.16294729686935, 38.72217291706106], [-77.16684598520297, 38.72038571407603], [-77.16817549182365, 38.7194465385142], [-77.17018771806036, 38.72037870534889], [-77.16815752551797, 38.723301284946636], [-77.16817549182365, 38.72368674815369], [-77.16793294669691, 38.723861958014986], [-77.16707056402403, 38.723896999935675], [-77.1667022547575, 38.72365871453601], [-77.16567817533345, 38.72336436088642]]]}}, {"type": "Feature", "properties": {"FID": 28, "Shape_Leng": 4976.44706523, "Shape_Area": 707534.054292, "_Area_ID": "T17", "_Parent_ID": "Deer Hunting", "_label": " ", "_ClosedSta": "_closed", "_OpenSta": "_open", "Status": " ", "area_name": "T17", "area_type": null, "area_syskey": 28}, "geometry": {"type": "Polygon", "coordinates": [[[-77.14104637023947, 38.68328590789378], [-77.14158535941002, 38.682016658789884], [-77.14165722463275, 38.681518770397396], [-77.1420884159692, 38.68092270227306], [-77.14172010670265, 38.68052999585474], [-77.14202553389929, 38.68008118588085], [-77.14252859045847, 38.67978665280593], [-77.14401081067747, 38.67787917116725], [-77.14532235099247, 38.6768973593303], [-77.14589727277439, 38.67671502136348], [-77.14622066627672, 38.67696047621059], [-77.14591523908007, 38.6766098261713], [-77.14737050984054, 38.67708670980423], [-77.14792746531678, 38.677584629030285], [-77.14790949901109, 38.678075531918495], [-77.14723576254791, 38.67810358341041], [-77.1473615266877, 38.67883291834127], [-77.14791848216393, 38.67891005910127], [-77.14813407783215, 38.6799339194949], [-77.14803526315089, 38.68038273039232], [-77.14763102127297, 38.68099282819244], [-77.14715491417233, 38.68139955716972], [-77.14698423426832, 38.681785246305914], [-77.14728966146497, 38.683496278498545], [-77.14723576254791, 38.68491275780234], [-77.14527743522825, 38.68494080661434], [-77.14482827758614, 38.68505300175245], [-77.14450488408382, 38.685354525314395], [-77.14448691777812, 38.68618195553827], [-77.14428928841559, 38.68626610044876], [-77.14297774810059, 38.68587342335318], [-77.14305859647618, 38.685340500990854], [-77.14356165303535, 38.68469537913647], [-77.14353470357682, 38.683538352545305], [-77.14327419214439, 38.6832157842214], [-77.14250164099994, 38.68372067312866], [-77.14225011272035, 38.684288668891256], [-77.14127094906053, 38.68531946450037], [-77.14119010068494, 38.68567708399724], [-77.141414679506, 38.68604872589426], [-77.14050738106891, 38.68634323319647], [-77.13977974568868, 38.685298428003726], [-77.13954618371477, 38.68441488955958], [-77.1408397577241, 38.68389598094382], [-77.14104637023947, 38.68328590789378]]]}}, {"type": "Feature", "properties": {"FID": 29, "Shape_Leng": 4910.28953231, "Shape_Area": 650398.000206, "_Area_ID": "H15", "_Parent_ID": "Deer Hunting", "_label": " ", "_ClosedSta": "_closed", "_OpenSta": "_open", "Status": " ", "area_name": "H15", "area_type": null, "area_syskey": 29}, "geometry": {"type": "Polygon", "coordinates": [[[-77.15803351226452, 38.73221546561012], [-77.1567579045609, 38.73138156033254], [-77.15631773007162, 38.73090503866043], [-77.15635366268299, 38.72925821134918], [-77.1570094328405, 38.72756929795468], [-77.15642552790572, 38.727022670129784], [-77.15612010070909, 38.72711377505768], [-77.15602128602782, 38.727464177543915], [-77.15507805497936, 38.728115921597436], [-77.15245497434937, 38.728956872881454], [-77.15232022705673, 38.72860647771608], [-77.1519968335544, 38.728592461873724], [-77.1507481753093, 38.729559548545936], [-77.15049664702973, 38.72958057202383], [-77.1496881632739, 38.728620493555695], [-77.14940070238293, 38.72721889598401], [-77.15200581670724, 38.72631485096327], [-77.15673993825521, 38.72409323437404], [-77.15852758567087, 38.72303496369804], [-77.15920132213405, 38.72284573483931], [-77.15963251347048, 38.72724692820489], [-77.15921030528689, 38.72725393625839], [-77.1589587770073, 38.72769544224344], [-77.15916538952267, 38.727884658258986], [-77.15867131611635, 38.7288727781985], [-77.15854555197654, 38.729909939036894], [-77.15856351828224, 38.73106621546408], [-77.15920132213405, 38.731269437872115], [-77.15921928843973, 38.731521713160575], [-77.1590665748414, 38.73178099516757], [-77.15862640035213, 38.731823040809765], [-77.1584916530595, 38.732152397484036], [-77.15803351226452, 38.73221546561012]]]}}, {"type": "Feature", "properties": {"FID": 30, "Shape_Leng": 2617.12581822, "Shape_Area": 224129.71215, "_Area_ID": "N2", "_Parent_ID": "Deer Hunting", "_label": " ", "_ClosedSta": "_closed", "_OpenSta": "_open", "Status": " ", "area_name": "N2", "area_type": null, "area_syskey": 30}, "geometry": {"type": "Polygon", "coordinates": [[[-77.2020689274982, 38.75200209208198], [-77.20133230896512, 38.752009097706654], [-77.20072145457183, 38.7524364395124], [-77.20028128008255, 38.75308795570259], [-77.20005670126149, 38.75319303840218], [-77.19975127406485, 38.753052928101695], [-77.19955364470232, 38.751665821288505], [-77.19978720667622, 38.75139260010239], [-77.20037111161098, 38.75106333215531], [-77.20050585890361, 38.75072005118915], [-77.19909550390736, 38.74923481655941], [-77.19870024518228, 38.74835907411291], [-77.19861041365385, 38.74749733305958], [-77.19808040763616, 38.7465725262121], [-77.20027229692971, 38.746439409088715], [-77.20096399969857, 38.747301162911135], [-77.20084721871163, 38.74759541793169], [-77.20117061221396, 38.748912544588315], [-77.20264384928011, 38.750362757001774], [-77.20254503459884, 38.75093722913507], [-77.20265283243295, 38.751651809971044], [-77.2020689274982, 38.75200209208198]]]}}, {"type": "Feature", "properties": {"FID": 31, "Shape_Leng": 1775.89832853, "Shape_Area": 160390.704303, "_Area_ID": "R2A", "_Parent_ID": "Deer Hunting", "_label": " ", "_ClosedSta": "_closed", "_OpenSta": "_open", "Status": " ", "area_name": "R2A", "area_type": null, "area_syskey": 31}, "geometry": {"type": "Polygon", "coordinates": [[[-77.14448691777812, 38.72880970712131], [-77.14563676134195, 38.7283541921329], [-77.14585235701017, 38.7285153746916], [-77.14616676735966, 38.7285153746916], [-77.14848442079301, 38.7275482738849], [-77.14879883114249, 38.72878167551358], [-77.14940968553577, 38.72963663460139], [-77.14937375292442, 38.7299169468292], [-77.14688541958705, 38.7302322967708], [-77.14412759166443, 38.73084196937742], [-77.14384013077347, 38.73033040535761], [-77.14448691777812, 38.72880970712131]]]}}, {"type": "Feature", "properties": {"FID": 32, "Shape_Leng": 721.094792262, "Shape_Area": 15956.0223662, "_Area_ID": "Mulligan Pond", "_Parent_ID": "Fishing", "_label": " ", "_ClosedSta": "_closed", "_OpenSta": "_openwater", "Status": "_open", "area_name": "Mulligan Pond", "area_type": null, "area_syskey": 32}, "geometry": {"type": "Polygon", "coordinates": [[[-77.13384188165982, 38.72852238262067], [-77.13260220656757, 38.72757630597658], [-77.13249440873345, 38.72705070242766], [-77.13304238105684, 38.727260944311226], [-77.13332085879496, 38.727611346075676], [-77.13359933653308, 38.72770945826176], [-77.13379696589561, 38.72805985782656], [-77.1339856121053, 38.72808088174578], [-77.13441680344174, 38.72848033503584], [-77.13418324146784, 38.72871159644614], [-77.13384188165982, 38.72852238262067]]]}}, {"type": "Feature", "properties": {"FID": 33, "Shape_Leng": 659.598139257, "Shape_Area": 20167.9899624, "_Area_ID": "Golf Course Pond", "_Parent_ID": "Fishing", "_label": " ", "_ClosedSta": "_closed", "_OpenSta": "_openwater", "Status": "_closed", "area_name": "Golf Course Pond", "area_type": null, "area_syskey": 33}, "geometry": {"type": "Polygon", "coordinates": [[[-77.16199508266804, 38.72519353892093], [-77.16129439674634, 38.72531267916096], [-77.16166270601288, 38.72485714187679], [-77.16161779024867, 38.72418434303724], [-77.16241729085164, 38.72415630961479], [-77.16260593706133, 38.72424741819756], [-77.16254305499143, 38.72458381811224], [-77.16296526317502, 38.72519353892093], [-77.16284848218808, 38.72539677803431], [-77.16199508266804, 38.72519353892093]]]}}, {"type": "Feature", "properties": {"FID": 34, "Shape_Leng": 3268.28768402, "Shape_Area": 42063.8999469, "_Area_ID": "Accotink Creek", "_Parent_ID": "Fishing", "_label": " ", "_ClosedSta": "_closed", "_OpenSta": "_openwater", "Status": "_openwater", "area_name": "Accotink Creek", "area_type": null, "area_syskey": 34}, "geometry": {"type": "Polygon", "coordinates": [[[-77.15958759770628, 38.695773837956075], [-77.15956064824775, 38.69567568193012], [-77.15982115968018, 38.69567568193012], [-77.15995590697281, 38.69658712556072], [-77.16140219458045, 38.69900590042352], [-77.16179745330551, 38.700218762532266], [-77.16156389133161, 38.70129139222885], [-77.16114168314802, 38.701747079714366], [-77.16090812117412, 38.702623393640636], [-77.16025235101662, 38.70344361374595], [-77.15995590697281, 38.7041446491141], [-77.16001878904271, 38.70443207162846], [-77.1604409972263, 38.704698462195545], [-77.16052184560189, 38.704915780081016], [-77.15978522706881, 38.70589720746602], [-77.15998285643134, 38.70519618927987], [-77.16030624993367, 38.70478258532635], [-77.15957861455342, 38.70436897898038], [-77.15947081671932, 38.70401846325503], [-77.16143812719181, 38.701263349827215], [-77.16159982394298, 38.699924312350255], [-77.15964149662334, 38.69647494850987], [-77.15958759770628, 38.695773837956075]]]}}, {"type": "Feature", "properties": {"FID": 35, "Shape_Leng": 1991.94806347, "Shape_Area": 64402.1084398, "_Area_ID": "Dogue Creek", "_Parent_ID": "Fishing", "_label": " ", "_ClosedSta": "_closed", "_OpenSta": "_openwater", "Status": "_selected", "area_name": "Dogue Creek", "area_type": null, "area_syskey": 35}, "geometry": {"type": "Polygon", "coordinates": [[[-77.13026658682853, 38.704817636601604], [-77.13027556998138, 38.70511206663567], [-77.13094930644455, 38.706198643173], [-77.13122778418267, 38.7073342732613], [-77.13168592497763, 38.707831981997764], [-77.13180270596459, 38.70869420160871], [-77.1324405098164, 38.709121802599256], [-77.13265610548463, 38.709528371661044], [-77.13313221258527, 38.70971062600716], [-77.1332220441137, 38.7100681235673], [-77.13359933653308, 38.71037655139843], [-77.13359035338024, 38.71055880358228], [-77.1330962799739, 38.7104115999314], [-77.1318476217288, 38.709177881228], [-77.13123676733551, 38.70875729044027], [-77.1309582895974, 38.707853011868096], [-77.12997014278473, 38.70625472409458], [-77.1294131873085, 38.70574298405476], [-77.12965573243524, 38.7054415464268], [-77.12961081667103, 38.705175158628094], [-77.13026658682853, 38.704817636601604]]]}}]}